{
    "type": "FeatureCollection",
    "features": [
      {
        "type": "Feature",
        "properties": {},
        "geometry": {
          "coordinates": [
            [
              37.72661619055796,
              51.27766212214621
            ],
            [
              37.72874510200302,
              51.27782078896348
            ],
            [
              37.73092909192212,
              51.27792687489142
            ],
            [
              37.731835682487485,
              51.27801263206291
            ],
            [
              37.73220762938871,
              51.278116235605665
            ],
            [
              37.732452724950264,
              51.27821963549286
            ],
            [
              37.73266077118245,
              51.27836938664146
            ],
            [
              37.73278616891099,
              51.27846030674314
            ],
            [
              37.73344735693689,
              51.279039695322325
            ],
            [
              37.73416201048923,
              51.27964592992251
            ],
            [
              37.73458095290184,
              51.28003099136171
            ],
            [
              37.73479184908226,
              51.2801433003402
            ],
            [
              37.735048344436905,
              51.28022708622467
            ],
            [
              37.73542738757277,
              51.28028947986891
            ],
            [
              37.73612795685105,
              51.280356798758106
            ],
            [
              37.73705103640199,
              51.28041712011199
            ],
            [
              37.737831942940005,
              51.280492113343854
            ],
            [
              37.73889793413963,
              51.280598437225706
            ],
            [
              37.73903535616466,
              51.28053225853256
            ],
            [
              37.73925195224163,
              51.28061426104534
            ],
            [
              37.74018673531273,
              51.280674871505
            ],
            [
              37.74136004452916,
              51.280749543576974
            ],
            [
              37.74257115384563,
              51.28082221750748
            ],
            [
              37.74394087835981,
              51.28090614909243
            ],
            [
              37.74574359648042,
              51.28097210653908
            ],
            [
              37.747350759260314,
              51.28095705824376
            ],
            [
              37.748542035828564,
              51.280903578242885
            ],
            [
              37.74971704995684,
              51.28088928536576
            ],
            [
              37.75031165286134,
              51.28093385137345
            ],
            [
              37.75064794677135,
              51.280976634937616
            ],
            [
              37.751032689803736,
              51.28104259285453
            ],
            [
              37.75144308237151,
              51.2811032027484
            ],
            [
              37.75251153537218,
              51.28126109243965
            ],
            [
              37.75351186206797,
              51.28140726786182
            ],
            [
              37.75478392398247,
              51.281551916198964
            ],
            [
              37.75605191357795,
              51.28167267964719
            ],
            [
              37.75716184039376,
              51.28180597174938
            ],
            [
              37.75856143534219,
              51.281942152380594
            ],
            [
              37.759904363134666,
              51.28203543511748
            ],
            [
              37.76142758321848,
              51.2821093833509
            ],
            [
              37.7628846609104,
              51.282152502901255
            ],
            [
              37.763306453272236,
              51.282177459323236
            ],
            [
              37.7634119013629,
              51.28214715509506
            ],
            [
              37.76366554676929,
              51.28220776353143
            ],
            [
              37.76537450253059,
              51.28232792129282
            ],
            [
              37.767128628146594,
              51.28245448402001
            ],
            [
              37.768519404766295,
              51.282570349930694
            ],
            [
              37.7703031390198,
              51.28268040491824
            ],
            [
              37.77259483710429,
              51.28289812492574
            ],
            [
              37.77273448457518,
              51.28286425602445
            ],
            [
              37.7729681803427,
              51.28293734151745
            ],
            [
              37.77458340735569,
              51.28308212520966
            ],
            [
              37.7753927926982,
              51.28315877548255
            ],
            [
              37.776810962404454,
              51.28330608184447
            ],
            [
              37.77869763192041,
              51.28351107360993
            ],
            [
              37.78029125812401,
              51.28370851436182
            ],
            [
              37.78271007286625,
              51.28394279503118
            ],
            [
              37.78434594324091,
              51.284131743094434
            ],
            [
              37.786437014682264,
              51.28436550769311
            ],
            [
              37.7871006348669,
              51.2844351332341
            ],
            [
              37.787587976040726,
              51.2844190906103
            ],
            [
              37.787710523822,
              51.284385222830565
            ],
            [
              37.78788437067308,
              51.28429074941755
            ],
            [
              37.78810666664751,
              51.284294314455934
            ],
            [
              37.78839166148671,
              51.28437452773687
            ],
            [
              37.78843726066091,
              51.284481478560906
            ],
            [
              37.788596857770614,
              51.284517128779896
            ],
            [
              37.78889040245372,
              51.28461338423375
            ],
            [
              37.78913264806698,
              51.28468468443981
            ],
            [
              37.78969970104504,
              51.284764284590864
            ],
            [
              37.79286048781927,
              51.28513909200578
            ],
            [
              37.79301723498071,
              51.2850802699258
            ],
            [
              37.793287980076656,
              51.28518365413734
            ],
            [
              37.7958478077897,
              51.28549659301257
            ],
            [
              37.79821194472254,
              51.285763104802214
            ],
            [
              37.79928352531621,
              51.28589144188058
            ],
            [
              37.80181046595598,
              51.28618104959307
            ],
            [
              37.80204416172347,
              51.28618639693022
            ],
            [
              37.802169559452125,
              51.28624165270705
            ],
            [
              37.80383881488524,
              51.28642299062474
            ],
            [
              37.80559836635041,
              51.286649337152966
            ],
            [
              37.80716833911839,
              51.286825251207375
            ],
            [
              37.8082882801624,
              51.28697877790216
            ],
            [
              37.80849062649804,
              51.28694312959399
            ],
            [
              37.80871007252327,
              51.28701442618319
            ],
            [
              37.810156952562096,
              51.28719241906674
            ],
            [
              37.81115611591315,
              51.28732205234152
            ],
            [
              37.81246406396838,
              51.28745750786689
            ],
            [
              37.81253246272965,
              51.28741294794162
            ],
            [
              37.81270345963341,
              51.287462855055395
            ],
            [
              37.81385975955055,
              51.28761846584095
            ],
            [
              37.81525367484903,
              51.28777091756001
            ],
            [
              37.81597186184308,
              51.287842212864035
            ],
            [
              37.816708955631725,
              51.28787323397589
            ],
            [
              37.817398643141274,
              51.28781798016212
            ],
            [
              37.817880284418635,
              51.28770390756233
            ],
            [
              37.81939378783596,
              51.28746469574162
            ],
            [
              37.81944508690674,
              51.28734705746368
            ],
            [
              37.819541985151716,
              51.28741300623267
            ],
            [
              37.82006312883681,
              51.2873148401458
            ],
            [
              37.82045357176676,
              51.2871437292651
            ],
            [
              37.82087821407586,
              51.2869494463462
            ],
            [
              37.821131854371686,
              51.286915584457404
            ],
            [
              37.82144534869357,
              51.286906672370435
            ],
            [
              37.82186714105541,
              51.286928061376074
            ],
            [
              37.82226043393263,
              51.28696549211111
            ],
            [
              37.822380131764675,
              51.286988663503706
            ],
            [
              37.822451380474206,
              51.28710452028997
            ],
            [
              37.82243998068114,
              51.28717938144251
            ],
            [
              37.82238583166216,
              51.287323756177926
            ],
            [
              37.822337382538734,
              51.28741465855671
            ],
            [
              37.82227468367495,
              51.28750912554321
            ],
            [
              37.82223193444898,
              51.28761428667778
            ],
            [
              37.822240484293786,
              51.28769805893447
            ],
            [
              37.822357332177575,
              51.28780143725308
            ],
            [
              37.823301301290826,
              51.2886523401381
            ],
            [
              37.82445891785886,
              51.28966003752774
            ],
            [
              37.824530166568394,
              51.289684989869784
            ],
            [
              37.824592865433175,
              51.28980440446435
            ],
            [
              37.82521873154252,
              51.29040492291631
            ],
            [
              37.825761361964226,
              51.29091257274385
            ],
            [
              37.826530473502174,
              51.29155739907549
            ],
            [
              37.82703746773194,
              51.291953189036604
            ],
            [
              37.827368061745375,
              51.29220269939006
            ],
            [
              37.828168192082444,
              51.29283478492576
            ],
            [
              37.82883140750633,
              51.29336976671681
            ],
            [
              37.82930449893885,
              51.293697684213015
            ],
            [
              37.830291801656074,
              51.29442558869778
            ],
            [
              37.83093304051911,
              51.29479448716393
            ],
            [
              37.83201032100936,
              51.29526318006128
            ],
            [
              37.8328327875974,
              51.29563851430282
            ],
            [
              37.83416790483366,
              51.29622915586626
            ],
            [
              37.83500005934155,
              51.29658358375633
            ],
            [
              37.83507415799937,
              51.2966922881844
            ],
            [
              37.83581799452887,
              51.2959812496361
            ],
            [
              37.83579519494177,
              51.295934915914415
            ],
            [
              37.83595194210224,
              51.295872543523785
            ],
            [
              37.83682498135485,
              51.29510504221625
            ],
            [
              37.836975190423686,
              51.2951572529866
            ],
            [
              37.83782732507376,
              51.29553327396198
            ],
            [
              37.83964425263676,
              51.29635282236649
            ],
            [
              37.84164215108308,
              51.29723027770834
            ],
            [
              37.84405818710789,
              51.29832390645396
            ],
            [
              37.84551071924375,
              51.29901460093129
            ],
            [
              37.8463856533983,
              51.29940484578685
            ],
            [
              37.84698758807957,
              51.2996611695132
            ],
            [
              37.84709588611855,
              51.2996576056683
            ],
            [
              37.847298232454165,
              51.29979303158581
            ],
            [
              37.84788247187396,
              51.30009061081617
            ],
            [
              37.84901959425818,
              51.3005645917963
            ],
            [
              37.850782027197454,
              51.30138963205101
            ],
            [
              37.85197399341152,
              51.30194042666852
            ],
            [
              37.85254836695762,
              51.30234257570194
            ],
            [
              37.85275071329323,
              51.302531448059455
            ],
            [
              37.85282766190031,
              51.302559957027086
            ],
            [
              37.852859011332214,
              51.302657956468266
            ],
            [
              37.85322040653867,
              51.30297701517284
            ],
            [
              37.85388159456454,
              51.30345987873426
            ],
            [
              37.85477329302995,
              51.30408406470417
            ],
            [
              37.855421653791154,
              51.3044707457326
            ],
            [
              37.856539086333214,
              51.30504661382065
            ],
            [
              37.85782000659995,
              51.30556548529529
            ],
            [
              37.8580337527296,
              51.30562606282541
            ],
            [
              37.85807650195454,
              51.305695548717665
            ],
            [
              37.859564953336246,
              51.30640296792146
            ],
            [
              37.86004193772635,
              51.306640806426344
            ],
            [
              37.860617627300456,
              51.30681362629602
            ],
            [
              37.86121896641069,
              51.30686707560861
            ],
            [
              37.86230478937867,
              51.306886674446986
            ],
            [
              37.86366420901538,
              51.30690627311003
            ],
            [
              37.86467308667051,
              51.30694012435907
            ],
            [
              37.86585039233242,
              51.306966849158925
            ],
            [
              37.86693278710817,
              51.30700581888337
            ],
            [
              37.86756547564946,
              51.30704323325216
            ],
            [
              37.868548707843956,
              51.307175074117225
            ],
            [
              37.868885001752915,
              51.307183982270374
            ],
            [
              37.87019930822913,
              51.307310300500376
            ],
            [
              37.87108908730255,
              51.30739844665439
            ],
            [
              37.871679026618864,
              51.307597987893786
            ],
            [
              37.8728135384319,
              51.30810005499367
            ],
            [
              37.87337594442798,
              51.30834765012062
            ],
            [
              37.873489942363506,
              51.30833517902224
            ],
            [
              37.87359824040246,
              51.308443855622386
            ],
            [
              37.87499336590142,
              51.30901385479703
            ],
            [
              37.87646678346968,
              51.30959463758862
            ],
            [
              37.876902070399524,
              51.30977832123713
            ],
            [
              37.87699611869621,
              51.30975516134515
            ],
            [
              37.877315312915556,
              51.30994400319847
            ],
            [
              37.87838735331468,
              51.31043839840203
            ],
            [
              37.87948198328948,
              51.310864091555004
            ],
            [
              37.87968923665392,
              51.310970670265874
            ]
          ],
          "type": "LineString"
        }
      },
      {
        "type": "Feature",
        "properties": {},
        "geometry": {
          "coordinates": [
            [
              37.8796892168171,
              51.3109704587917
            ],
            [
              37.879940565689736,
              51.31076674488679
            ],
            [
              37.880192360928106,
              51.3105212298764
            ],
            [
              37.88018118322083,
              51.31045168014438
            ],
            [
              37.88036833104354,
              51.31036429281167
            ],
            [
              37.881118450749284,
              51.30969979037951
            ],
            [
              37.88164702593096,
              51.30922424193639
            ],
            [
              37.88215434833984,
              51.30877460543144
            ],
            [
              37.88282781348016,
              51.30817898167032
            ],
            [
              37.883675614411914,
              51.30741641179122
            ],
            [
              37.88368290499085,
              51.30728377920556
            ],
            [
              37.88390161991637,
              51.307214710268795
            ],
            [
              37.88460060621472,
              51.30657257960655
            ],
            [
              37.88539272912817,
              51.30587686730513
            ],
            [
              37.88603671057726,
              51.30527894524823
            ],
            [
              37.88706379907268,
              51.304329945024165
            ],
            [
              37.88805532744789,
              51.30345001089364
            ],
            [
              37.88877541804635,
              51.302786602722364
            ],
            [
              37.889293907217706,
              51.30231632400549
            ],
            [
              37.88926910449368,
              51.302258525381376
            ],
            [
              37.88947654545447,
              51.302183809978715
            ],
            [
              37.8900875286858,
              51.30160750477205
            ],
            [
              37.890651226849144,
              51.30109153527877
            ],
            [
              37.89095815805669,
              51.30078897292577
            ],
            [
              37.89144169907203,
              51.30033690212119
            ],
            [
              37.89148454006019,
              51.300169137674516
            ],
            [
              37.89135150725957,
              51.300018290151826
            ],
            [
              37.89027597097541,
              51.29957561325625
            ],
            [
              37.89012136185582,
              51.299472581135944
            ],
            [
              37.89007626599522,
              51.299375304212646
            ],
            [
              37.89014841937282,
              51.29929353504505
            ],
            [
              37.89026115902587,
              51.29923150316344
            ],
            [
              37.890385172644415,
              51.299220224630915
            ],
            [
              37.89064898343054,
              51.29930904299988
            ],
            [
              37.89095112569839,
              51.299441565325765
            ],
            [
              37.89145619934112,
              51.299661495150644
            ],
            [
              37.89279292164733,
              51.3002325177867
            ],
            [
              37.89357912568897,
              51.300627524332384
            ],
            [
              37.893791076235686,
              51.30073325722503
            ],
            [
              37.894414294714636,
              51.30112458176066
            ],
            [
              37.89453540697622,
              51.301248860763536
            ],
            [
              37.89532232975023,
              51.3016055272509
            ],
            [
              37.89608513968108,
              51.3019020069479
            ],
            [
              37.89662733900823,
              51.302155985466385
            ],
            [
              37.89673225819999,
              51.30214307991409
            ],
            [
              37.89683198934006,
              51.3022684475369
            ],
            [
              37.89795327411281,
              51.30276027275818
            ],
            [
              37.89903182736981,
              51.30323151384141
            ],
            [
              37.89995539998074,
              51.303622268833294
            ],
            [
              37.90097865713801,
              51.30406246990813
            ],
            [
              37.90182817255791,
              51.30443636849219
            ],
            [
              37.902770933342,
              51.304842656842936
            ],
            [
              37.903434895920356,
              51.30512073501427
            ],
            [
              37.9044681653443,
              51.3055806395422
            ],
            [
              37.9056031003455,
              51.30607859279732
            ],
            [
              37.906824991120345,
              51.306604499311646
            ],
            [
              37.90783150286498,
              51.30705645312224
            ],
            [
              37.90863006733741,
              51.30741864512535
            ],
            [
              37.90932933434527,
              51.30770290813416
            ],
            [
              37.90942511625636,
              51.3076749820608
            ],
            [
              37.90962653546566,
              51.307842293663185
            ],
            [
              37.910089053806956,
              51.30800163524677
            ],
            [
              37.910920793529414,
              51.3082946176292
            ],
            [
              37.911122140574946,
              51.308348068336585
            ],
            [
              37.91137649375389,
              51.30839857431917
            ],
            [
              37.911492132183696,
              51.30851842430428
            ],
            [
              37.91147426796766,
              51.308607316696595
            ],
            [
              37.91140758881005,
              51.30870569607987
            ],
            [
              37.911243672427105,
              51.30878195597856
            ],
            [
              37.91113180210971,
              51.308793866766564
            ],
            [
              37.91097561580378,
              51.30891100858884
            ],
            [
              37.91060718549471,
              51.30918523020955
            ],
            [
              37.910241991334175,
              51.30947308823903
            ],
            [
              37.909940557644745,
              51.3097499438492
            ],
            [
              37.90946486684274,
              51.31017356459088
            ],
            [
              37.90948918057097,
              51.310219100252795
            ],
            [
              37.90935213267588,
              51.31027587802362
            ],
            [
              37.90880182756277,
              51.31076982529612
            ],
            [
              37.908235060600674,
              51.311293195969114
            ],
            [
              37.90767866387091,
              51.311771697132
            ],
            [
              37.90746554123126,
              51.31199767268694
            ],
            [
              37.90750753169036,
              51.31205487501771
            ],
            [
              37.90737092456371,
              51.31214645953867
            ],
            [
              37.90725111262947,
              51.31218009439323
            ],
            [
              37.9067247705689,
              51.31263728001824
            ],
            [
              37.90608197529835,
              51.313210482919686
            ],
            [
              37.905645183787726,
              51.31358041374256
            ],
            [
              37.90539070892035,
              51.313866372805506
            ],
            [
              37.90534847649974,
              51.31395588898218
            ],
            [
              37.90539256794739,
              51.31404053737842
            ],
            [
              37.90529121169388,
              51.31412572344857
            ],
            [
              37.90518899795805,
              51.314179242540746
            ],
            [
              37.905102667455935,
              51.314189313625775
            ],
            [
              37.90503516123769,
              51.31417190038536
            ],
            [
              37.90483975077365,
              51.31410421788718
            ],
            [
              37.90479882933815,
              51.31401608349617
            ],
            [
              37.90472794129968,
              51.31394789884706
            ],
            [
              37.90461321483008,
              51.313813563908866
            ],
            [
              37.90423869384648,
              51.31363160861156
            ],
            [
              37.90404515249375,
              51.31362072086495
            ],
            [
              37.903962107591894,
              51.313529769457205
            ],
            [
              37.90360284158689,
              51.31337010744002
            ],
            [
              37.90261605433963,
              51.31293571220533
            ],
            [
              37.901364613814565,
              51.31240225720731
            ],
            [
              37.90015623317129,
              51.31187031796827
            ],
            [
              37.899585988444215,
              51.31165354170986
            ],
            [
              37.89917663330138,
              51.311474831881924
            ],
            [
              37.89906374843818,
              51.31147150974047
            ],
            [
              37.89888370190528,
              51.311333781274186
            ],
            [
              37.898603344086496,
              51.311212356724525
            ],
            [
              37.89803069832135,
              51.310969586132984
            ],
            [
              37.8976090292517,
              51.310784542814474
            ],
            [
              37.89701171992314,
              51.311336101167086
            ],
            [
              37.896789457128506,
              51.31154209118475
            ],
            [
              37.89682402527015,
              51.311647610480975
            ],
            [
              37.8966519620962,
              51.31168612673278
            ],
            [
              37.896113366253815,
              51.31212307759708
            ],
            [
              37.895452713913215,
              51.312721002373564
            ],
            [
              37.89481738275401,
              51.31332231559372
            ],
            [
              37.89420182246383,
              51.313868190225605
            ],
            [
              37.893414981175596,
              51.31456878107912
            ],
            [
              37.89279575649073,
              51.31511840729186
            ],
            [
              37.892687889880136,
              51.31523740527899
            ],
            [
              37.892733992956124,
              51.31530936272267
            ],
            [
              37.89257255280188,
              51.31532882118347
            ],
            [
              37.89196684138682,
              51.31587088105425
            ],
            [
              37.89144755677751,
              51.316347238919036
            ],
            [
              37.890761520040286,
              51.31695154185499
            ],
            [
              37.89001942732261,
              51.31763011605244
            ],
            [
              37.89001379850387,
              51.3177335377753
            ],
            [
              37.8899034379786,
              51.3177493188887
            ],
            [
              37.88919534540443,
              51.318357514620146
            ],
            [
              37.88865616657253,
              51.318868733182796
            ],
            [
              37.888067397832685,
              51.31937567186415
            ],
            [
              37.88740481034321,
              51.31997892815798
            ],
            [
              37.88665089973898,
              51.320660350185506
            ],
            [
              37.88577633058432,
              51.32145038173283
            ],
            [
              37.88579111437417,
              51.3215219708234
            ],
            [
              37.88564469360253,
              51.3215883663421
            ],
            [
              37.884789804018396,
              51.32232804437223
            ],
            [
              37.88399615822584,
              51.32304077733363
            ],
            [
              37.8834364967162,
              51.32355701210244
            ],
            [
              37.88259278930852,
              51.3243227445619
            ],
            [
              37.88238112656455,
              51.324531754880866
            ],
            [
              37.882408876590915,
              51.32458188051308
            ],
            [
              37.88236922298461,
              51.32464432039649
            ]
          ],
          "type": "LineString"
        }
      }
    ]
  }