{
    "type": "FeatureCollection",
    "features": [
      {
        "type": "Feature",
        "properties": {},
        "geometry": {
          "type": "LineString",
          "coordinates": [
            [
              37.795343,
              51.284699
            ],
            [
              37.795469,
              51.2846
            ],
            [
              37.795565,
              51.284271
            ],
            [
              37.79569,
              51.283877
            ],
            [
              37.795798,
              51.283583
            ],
            [
              37.795989,
              51.283214
            ],
            [
              37.796108,
              51.282975
            ],
            [
              37.79607,
              51.282943
            ],
            [
              37.796164,
              51.282882
            ],
            [
              37.796272,
              51.282728
            ],
            [
              37.796495,
              51.282462
            ],
            [
              37.796657,
              51.28229
            ],
            [
              37.796886,
              51.282059
            ],
            [
              37.797125,
              51.281804
            ],
            [
              37.797408,
              51.281515
            ],
            [
              37.797637,
              51.28127
            ],
            [
              37.797911,
              51.28099
            ],
            [
              37.798147,
              51.28075
            ],
            [
              37.798401,
              51.280486
            ],
            [
              37.798589,
              51.280275
            ],
            [
              37.798794,
              51.280059
            ],
            [
              37.799046,
              51.279803
            ],
            [
              37.799271,
              51.279585
            ],
            [
              37.799511,
              51.279321
            ],
            [
              37.799736,
              51.279083
            ],
            [
              37.800018,
              51.278793
            ],
            [
              37.800327,
              51.278476
            ],
            [
              37.80062,
              51.278163
            ],
            [
              37.800831,
              51.277949
            ],
            [
              37.80113,
              51.27763
            ],
            [
              37.801294,
              51.277451
            ],
            [
              37.801291,
              51.277415
            ],
            [
              37.801357,
              51.277395
            ],
            [
              37.801678,
              51.277048
            ],
            [
              37.801991,
              51.276717
            ],
            [
              37.802542,
              51.276161
            ],
            [
              37.802958,
              51.275756
            ],
            [
              37.80321,
              51.275489
            ],
            [
              37.803547,
              51.275171
            ],
            [
              37.803733,
              51.275029
            ],
            [
              37.803862,
              51.275021
            ],
            [
              37.803984,
              51.275062
            ],
            [
              37.804059,
              51.27505
            ],
            [
              37.804141,
              51.275122
            ],
            [
              37.805208,
              51.275528
            ],
            [
              37.80599,
              51.275825
            ],
            [
              37.806853,
              51.27614
            ],
            [
              37.806968,
              51.276145
            ],
            [
              37.807036,
              51.276211
            ],
            [
              37.807834,
              51.276505
            ],
            [
              37.808172,
              51.276631
            ],
            [
              37.808397,
              51.27678
            ],
            [
              37.80873,
              51.277009
            ],
            [
              37.809147,
              51.277317
            ],
            [
              37.809535,
              51.277641
            ],
            [
              37.809915,
              51.277947
            ],
            [
              37.810241,
              51.278218
            ],
            [
              37.810679,
              51.278579
            ],
            [
              37.810782,
              51.278644
            ],
            [
              37.810917,
              51.278666
            ],
            [
              37.811039,
              51.278652
            ],
            [
              37.811187,
              51.278655
            ],
            [
              37.811296,
              51.278705
            ],
            [
              37.811452,
              51.278906
            ],
            [
              37.811539,
              51.279053
            ],
            [
              37.812027,
              51.279432
            ],
            [
              37.81259,
              51.279859
            ],
            [
              37.812739,
              51.279978
            ],
            [
              37.812837,
              51.280001
            ],
            [
              37.812853,
              51.280091
            ],
            [
              37.813384,
              51.280532
            ],
            [
              37.81397,
              51.281009
            ],
            [
              37.814596,
              51.281497
            ],
            [
              37.815046,
              51.281858
            ],
            [
              37.815331,
              51.28209
            ],
            [
              37.815556,
              51.282276
            ],
            [
              37.815632,
              51.282308
            ],
            [
              37.815664,
              51.282396
            ],
            [
              37.816141,
              51.282827
            ],
            [
              37.816477,
              51.283124
            ],
            [
              37.816888,
              51.283452
            ],
            [
              37.817371,
              51.283848
            ],
            [
              37.817707,
              51.284114
            ],
            [
              37.818128,
              51.284456
            ],
            [
              37.818523,
              51.284787
            ],
            [
              37.81897,
              51.285115
            ],
            [
              37.819435,
              51.285474
            ],
            [
              37.819781,
              51.285735
            ],
            [
              37.820161,
              51.286015
            ],
            [
              37.820288,
              51.2861
            ],
            [
              37.820337,
              51.286106
            ],
            [
              37.820398,
              51.286196
            ],
            [
              37.820879,
              51.286568
            ],
            [
              37.821256,
              51.286847
            ],
            [
              37.821377,
              51.286895
            ],
            [
              37.821705,
              51.286906
            ],
            [
              37.822257,
              51.286949
            ],
            [
              37.822384,
              51.287008
            ],
            [
              37.822442,
              51.287134
            ],
            [
              37.822397,
              51.287253
            ],
            [
              37.822301,
              51.287502
            ],
            [
              37.822223,
              51.287591
            ],
            [
              37.822084,
              51.28768
            ],
            [
              37.821888,
              51.287707
            ],
            [
              37.821468,
              51.287635
            ],
            [
              37.820961,
              51.287552
            ],
            [
              37.820197,
              51.287439
            ],
            [
              37.819813,
              51.287414
            ],
            [
              37.819591,
              51.287427
            ],
            [
              37.819096,
              51.287528
            ],
            [
              37.818206,
              51.287691
            ],
            [
              37.81819,
              51.28774
            ],
            [
              37.818056,
              51.287714
            ],
            [
              37.81714,
              51.28786
            ],
            [
              37.816466,
              51.287872
            ],
            [
              37.815668,
              51.287837
            ],
            [
              37.814956,
              51.287762
            ],
            [
              37.814077,
              51.287656
            ],
            [
              37.813297,
              51.287566
            ],
            [
              37.812442,
              51.287465
            ],
            [
              37.81151,
              51.287361
            ],
            [
              37.810872,
              51.287286
            ],
            [
              37.810241,
              51.287213
            ],
            [
              37.809403,
              51.287115
            ],
            [
              37.808795,
              51.287044
            ],
            [
              37.808167,
              51.286974
            ],
            [
              37.80745,
              51.286884
            ],
            [
              37.80739,
              51.286916
            ],
            [
              37.80709,
              51.286839
            ],
            [
              37.806409,
              51.28676
            ],
            [
              37.805709,
              51.286676
            ],
            [
              37.805025,
              51.286594
            ],
            [
              37.804237,
              51.286494
            ],
            [
              37.803646,
              51.286421
            ],
            [
              37.803233,
              51.286383
            ],
            [
              37.802605,
              51.286297
            ],
            [
              37.802081,
              51.286239
            ],
            [
              37.801271,
              51.286142
            ],
            [
              37.800848,
              51.28609
            ],
            [
              37.800773,
              51.286124
            ],
            [
              37.800614,
              51.28606
            ],
            [
              37.799786,
              51.285963
            ],
            [
              37.799092,
              51.28588
            ],
            [
              37.798411,
              51.285801
            ],
            [
              37.797618,
              51.285712
            ],
            [
              37.796785,
              51.285614
            ],
            [
              37.795575,
              51.285464
            ],
            [
              37.794698,
              51.285362
            ],
            [
              37.794084,
              51.285289
            ],
            [
              37.793852,
              51.285269
            ],
            [
              37.79379,
              51.285287
            ],
            [
              37.793629,
              51.285241
            ],
            [
              37.793097,
              51.285179
            ],
            [
              37.792293,
              51.285087
            ],
            [
              37.791304,
              51.284975
            ],
            [
              37.790392,
              51.284858
            ],
            [
              37.789286,
              51.284735
            ],
            [
              37.788943,
              51.284687
            ],
            [
              37.788459,
              51.284697
            ],
            [
              37.788304,
              51.28475
            ],
            [
              37.788151,
              51.28482
            ],
            [
              37.787954,
              51.284823
            ],
            [
              37.78773,
              51.284772
            ],
            [
              37.787626,
              51.284663
            ],
            [
              37.787506,
              51.284601
            ],
            [
              37.787028,
              51.284454
            ],
            [
              37.786644,
              51.284397
            ],
            [
              37.786074,
              51.284333
            ],
            [
              37.785366,
              51.284259
            ],
            [
              37.784621,
              51.284177
            ],
            [
              37.784021,
              51.284114
            ],
            [
              37.783459,
              51.284054
            ],
            [
              37.782796,
              51.283981
            ],
            [
              37.782152,
              51.283909
            ],
            [
              37.781384,
              51.283832
            ],
            [
              37.780576,
              51.283736
            ],
            [
              37.779624,
              51.283627
            ],
            [
              37.779561,
              51.28364
            ],
            [
              37.779475,
              51.28361
            ],
            [
              37.778688,
              51.283512
            ],
            [
              37.777904,
              51.283436
            ],
            [
              37.777034,
              51.283339
            ],
            [
              37.776187,
              51.283258
            ],
            [
              37.771597,
              51.282795
            ],
            [
              37.769507,
              51.282618
            ],
            [
              37.766155,
              51.282396
            ],
            [
              37.762552,
              51.282145
            ],
            [
              37.760358,
              51.28208
            ],
            [
              37.754792,
              51.281564
            ],
            [
              37.755563,
              51.277666
            ],
            [
              37.756771,
              51.272108
            ],
            [
              37.757569,
              51.268668
            ],
            [
              37.758118,
              51.266619
            ],
            [
              37.758412,
              51.265959
            ],
            [
              37.758351,
              51.265762
            ],
            [
              37.758301,
              51.265529
            ],
            [
              37.758129,
              51.265313
            ],
            [
              37.757887,
              51.265219
            ],
            [
              37.757627,
              51.265199
            ],
            [
              37.756831,
              51.265104
            ],
            [
              37.75649,
              51.264806
            ],
            [
              37.756291,
              51.264349
            ],
            [
              37.756177,
              51.264075
            ],
            [
              37.755957,
              51.263563
            ],
            [
              37.755735,
              51.263039
            ],
            [
              37.755337,
              51.262093
            ],
            [
              37.753851,
              51.258463
            ],
            [
              37.753062,
              51.258316
            ],
            [
              37.752744,
              51.258257
            ],
            [
              37.75293,
              51.257887
            ],
            [
              37.752703,
              51.257891
            ]
          ]
        }
      }
    ]
  }