{
    "type": "FeatureCollection",
    "features": [
      {
        "type": "Feature",
        "properties": {},
        "geometry": {
          "coordinates": [
            [
              37.79468975633006,
              51.24324411232553
            ],
            [
              37.79358788121519,
              51.24343762075617
            ],
            [
              37.79321988937946,
              51.24332766079323
            ],
            [
              37.792855271970836,
              51.24330458047277
            ],
            [
              37.789813853087196,
              51.24387885710661
            ],
            [
              37.78914680196192,
              51.244010895703184
            ],
            [
              37.78865150779151,
              51.24292186591063
            ],
            [
              37.787348519795415,
              51.2431211529223
            ],
            [
              37.783989464371444,
              51.24374541134935
            ],
            [
              37.78134119146168,
              51.244251314254115
            ],
            [
              37.78080158822013,
              51.24440716818893
            ],
            [
              37.7805091245836,
              51.244571912086116
            ],
            [
              37.78042178377109,
              51.24460163850864
            ],
            [
              37.78029937947008,
              51.24467351886423
            ],
            [
              37.78015811198884,
              51.24480069430473
            ],
            [
              37.779889191372945,
              51.2450988956042
            ],
            [
              37.779098465615476,
              51.24597924460849
            ],
            [
              37.77898753324723,
              51.246339564054125
            ],
            [
              37.779025561434224,
              51.24649757336692
            ],
            [
              37.77903462560619,
              51.246602454699996
            ],
            [
              37.77966269157247,
              51.24800867677354
            ],
            [
              37.780015054740545,
              51.248818932524756
            ],
            [
              37.78006770259918,
              51.24923690402912
            ],
            [
              37.780063595519266,
              51.24931481633979
            ],
            [
              37.77997761943607,
              51.24964143070159
            ],
            [
              37.779930554428375,
              51.249846007033995
            ],
            [
              37.77959422874727,
              51.2501891108476
            ],
            [
              37.779267762812935,
              51.25044197552123
            ],
            [
              37.778309165919126,
              51.25118467677265
            ],
            [
              37.77711783267819,
              51.25213110282175
            ],
            [
              37.776661590052925,
              51.2524858273473
            ],
            [
              37.776489035860834,
              51.252850617260066
            ],
            [
              37.77827763532457,
              51.253747241701035
            ],
            [
              37.78079429078133,
              51.25501929578232
            ],
            [
              37.78303200167875,
              51.25617952578318
            ],
            [
              37.78548198151111,
              51.25746579701007
            ],
            [
              37.786764700618136,
              51.25817567835486
            ],
            [
              37.787590932777704,
              51.25872560000002
            ],
            [
              37.78875929317252,
              51.25975486805234
            ],
            [
              37.788859617322316,
              51.25978589244281
            ],
            [
              37.788896292938745,
              51.25980910331836
            ],
            [
              37.788886033187936,
              51.25987643152061
            ],
            [
              37.78927963726818,
              51.260230447290155
            ],
            [
              37.79042535461849,
              51.26125166554445
            ],
            [
              37.791651984864785,
              51.26235032692523
            ],
            [
              37.792621322084955,
              51.26323177573744
            ],
            [
              37.79357874148076,
              51.264060459099966
            ],
            [
              37.79474087313403,
              51.26510873527096
            ],
            [
              37.796035398932446,
              51.26621290834174
            ],
            [
              37.79745900650934,
              51.26701253694233
            ],
            [
              37.79912655113563,
              51.26792135100138
            ],
            [
              37.800818416311955,
              51.268847735430455
            ],
            [
              37.80237355134477,
              51.269682078935176
            ],
            [
              37.80436857019163,
              51.27077212274193
            ],
            [
              37.80508602421605,
              51.27113302025444
            ],
            [
              37.80513594400159,
              51.27112969240102
            ],
            [
              37.8051655478082,
              51.27114602418379
            ],
            [
              37.80523955801502,
              51.27121743253858
            ],
            [
              37.805650072598326,
              51.27143679464291
            ],
            [
              37.806174599586114,
              51.271555428411915
            ],
            [
              37.806492839400136,
              51.271540247454425
            ],
            [
              37.8067262463467,
              51.27164851419053
            ],
            [
              37.80672248672923,
              51.271684778655924
            ],
            [
              37.80679401585718,
              51.27177562685114
            ],
            [
              37.806764287691124,
              51.2719206043011
            ],
            [
              37.806834791221576,
              51.27207889986636
            ],
            [
              37.807019013908814,
              51.272346992016224
            ],
            [
              37.807220470748575,
              51.272564836867474
            ],
            [
              37.80740502716233,
              51.272798718238505
            ],
            [
              37.807605959152454,
              51.27310749440932
            ],
            [
              37.80784633186528,
              51.27345351775941
            ],
            [
              37.808064817658135,
              51.27379177823951
            ],
            [
              37.80827693989838,
              51.274120220151616
            ],
            [
              37.80848318695314,
              51.2744353146268
            ],
            [
              37.80868747109517,
              51.27474477796392
            ],
            [
              37.80891038933032,
              51.275078820199894
            ],
            [
              37.80914296858063,
              51.27544336454392
            ],
            [
              37.80943934302388,
              51.275880792611446
            ],
            [
              37.809693417444436,
              51.27626979357632
            ],
            [
              37.809979934548466,
              51.276718461129036
            ],
            [
              37.81024664642371,
              51.27711342269842
            ],
            [
              37.810546560613346,
              51.27757748538855
            ],
            [
              37.81078099259611,
              51.27794469126556
            ],
            [
              37.81102984266596,
              51.27831091070533
            ],
            [
              37.811260961311234,
              51.27868917517557
            ],
            [
              37.81150026050844,
              51.27896933254138
            ],
            [
              37.811555225942925,
              51.279060495619035
            ],
            [
              37.81200926570213,
              51.27940797502325
            ],
            [
              37.81229747362636,
              51.27963423911126
            ],
            [
              37.812502958369265,
              51.2797977249098
            ],
            [
              37.81272710995128,
              51.27997593705709
            ],
            [
              37.81278576366188,
              51.28001205824293
            ],
            [
              37.81284102019268,
              51.28000784210806
            ],
            [
              37.81286441924246,
              51.28003176194042
            ],
            [
              37.812861153174936,
              51.28007980935931
            ],
            [
              37.813237977553456,
              51.28040774979604
            ],
            [
              37.81362651847627,
              51.28072144013325
            ],
            [
              37.814068896901745,
              51.28107855891315
            ],
            [
              37.814557920727225,
              51.28147178548235
            ],
            [
              37.81504478369857,
              51.281868394688246
            ],
            [
              37.81549784411965,
              51.28225546226352
            ],
            [
              37.81562926097163,
              51.28230626870263
            ],
            [
              37.81567749170398,
              51.28235741793719
            ],
            [
              37.81570407034144,
              51.282465914072844
            ],
            [
              37.81612865283273,
              51.282820333106486
            ],
            [
              37.81645563179467,
              51.28310727631148
            ],
            [
              37.81681767179148,
              51.28340092391551
            ],
            [
              37.81713088319546,
              51.2836503471234
            ],
            [
              37.81746450983374,
              51.283922004218965
            ],
            [
              37.8177031216359,
              51.28411256397217
            ],
            [
              37.81798439962577,
              51.28434843701416
            ],
            [
              37.81831090529215,
              51.28459576019779
            ],
            [
              37.81863857171933,
              51.28486513562564
            ],
            [
              37.81894139543982,
              51.28510982488024
            ],
            [
              37.81935696031175,
              51.28540216464336
            ],
            [
              37.8195872088788,
              51.28557973058028
            ],
            [
              37.81993789641578,
              51.285841336952956
            ],
            [
              37.82024541970375,
              51.286077230233246
            ],
            [
              37.820327878892755,
              51.28609832482309
            ],
            [
              37.82035142672305,
              51.286121826345095
            ],
            [
              37.8203762150502,
              51.28617044997
            ],
            [
              37.82044658013251,
              51.28623031975803
            ],
            [
              37.8207771358434,
              51.28648574027898
            ],
            [
              37.82093837675441,
              51.286617644144144
            ],
            [
              37.82116265590341,
              51.28678242122814
            ],
            [
              37.82133967270758,
              51.28689651087845
            ],
            [
              37.82170698682714,
              51.28691087378891
            ],
            [
              37.82219568996592,
              51.286949849408046
            ],
            [
              37.82235938721533,
              51.286984084154
            ],
            [
              37.82244458982473,
              51.28710189611317
            ],
            [
              37.82242235531422,
              51.28721997005431
            ],
            [
              37.82235129459596,
              51.287390792336595
            ],
            [
              37.822249314509776,
              51.28757173684096
            ],
            [
              37.82222539743506,
              51.28767460364105
            ],
            [
              37.82228784047902,
              51.28778271001309
            ],
            [
              37.82259145653671,
              51.288011106033764
            ],
            [
              37.82292891130567,
              51.288300952178844
            ],
            [
              37.823217750515084,
              51.288568230697024
            ],
            [
              37.823526461322444,
              51.28883929022379
            ],
            [
              37.82382924281143,
              51.28909678093902
            ],
            [
              37.82406253214245,
              51.28930684900598
            ],
            [
              37.82428345085165,
              51.28950593693838
            ],
            [
              37.824475986190066,
              51.2896858629567
            ],
            [
              37.82452010722773,
              51.289677821404126
            ],
            [
              37.82454795697291,
              51.2897167445752
            ],
            [
              37.82455116808177,
              51.289759377686636
            ],
            [
              37.824945774004505,
              51.290150943231
            ],
            [
              37.82529717823434,
              51.29047466545751
            ],
            [
              37.82559183641371,
              51.29075044500635
            ],
            [
              37.825852799407926,
              51.29100172028285
            ],
            [
              37.8262299694733,
              51.29130676928685
            ],
            [
              37.8265494590639,
              51.29155946231327
            ],
            [
              37.827021245365586,
              51.291939407831705
            ],
            [
              37.82753487363587,
              51.29234844718826
            ],
            [
              37.82802842589828,
              51.29272154340333
            ],
            [
              37.82844035093163,
              51.2930572613453
            ],
            [
              37.82889206137389,
              51.29340490255015
            ],
            [
              37.82938689357823,
              51.29377619184393
            ],
            [
              37.83011353809053,
              51.29430173050531
            ],
            [
              37.8306215975735,
              51.29462347388218
            ],
            [
              37.83125516026652,
              51.29495417900361
            ],
            [
              37.83203561384104,
              51.2952878341672
            ],
            [
              37.83253336094134,
              51.29550735643693
            ],
            [
              37.832981332583955,
              51.29570697486446
            ],
            [
              37.83358700553555,
              51.29597891538893
            ],
            [
              37.83422729506148,
              51.29626103210734
            ],
            [
              37.834821982671855,
              51.296508776382865
            ],
            [
              37.83498174433126,
              51.29658386403622
            ],
            [
              37.83504745423525,
              51.29663800914747
            ],
            [
              37.83507680574334,
              51.29665919321755
            ],
            [
              37.835154892060245,
              51.29658711266302
            ],
            [
              37.83525875958247,
              51.29648433044733
            ],
            [
              37.83549368132705,
              51.29627949876814
            ],
            [
              37.83569917066791,
              51.296087713418416
            ],
            [
              37.835809862978664,
              51.295977223786224
            ],
            [
              37.83577979591905,
              51.2959498449508
            ],
            [
              37.83583105179707,
              51.295910239567945
            ],
            [
              37.83590175500058,
              51.295873261369906
            ],
            [
              37.83594015459059,
              51.295878719916175
            ],
            [
              37.83629692030041,
              51.29556514239198
            ],
            [
              37.83649194448623,
              51.295411348511465
            ],
            [
              37.83669248348295,
              51.29522352277749
            ],
            [
              37.83682109752232,
              51.295115638387756
            ],
            [
              37.8368775024216,
              51.295106804596884
            ],
            [
              37.8372128227378,
              51.295262309772056
            ],
            [
              37.83774844795843,
              51.29549381695969
            ],
            [
              37.83867383484815,
              51.29592219240283
            ],
            [
              37.83963373018969,
              51.29634364840166
            ],
            [
              37.84040308449539,
              51.2966853884586
            ],
            [
              37.841271766014046,
              51.297068410701144
            ],
            [
              37.84177196288596,
              51.29729041082601
            ],
            [
              37.84234198851411,
              51.29754129492159
            ],
            [
              37.84301539666271,
              51.29785244914876
            ],
            [
              37.8437532934704,
              51.298177574634536
            ],
            [
              37.844438903512895,
              51.29849912326384
            ],
            [
              37.84516733666834,
              51.2988483686147
            ],
            [
              37.845764283228476,
              51.29911332640282
            ],
            [
              37.846124647921755,
              51.2992726192611
            ],
            [
              37.84644181456167,
              51.299415365088834
            ],
            [
              37.84680640735007,
              51.29957341676382
            ],
            [
              37.84701851232717,
              51.299652770109304
            ],
            [
              37.847092880187915,
              51.299663667199695
            ],
            [
              37.84713090129512,
              51.29968709283747
            ],
            [
              37.84717561679693,
              51.299744775457015
            ],
            [
              37.84757474101656,
              51.299909152481206
            ],
            [
              37.848029161066336,
              51.30012668078328
            ],
            [
              37.848595235728965,
              51.3003768054231
            ],
            [
              37.84908018807786,
              51.30060194519223
            ],
            [
              37.84959091407919,
              51.30084563270978
            ],
            [
              37.85007868683354,
              51.30105555056579
            ],
            [
              37.85067068227417,
              51.301331585721584
            ],
            [
              37.85114493763939,
              51.30155237754482
            ],
            [
              37.851575750527786,
              51.30174994652671
            ],
            [
              37.852173037545754,
              51.30204994376942
            ],
            [
              37.85239987790476,
              51.302213277086054
            ],
            [
              37.852772050774576,
              51.3025339777283
            ]
          ],
          "type": "LineString"
        }
      },
      {
        "type": "Feature",
        "properties": {},
        "geometry": {
          "coordinates": [
            [
              37.85277177013154,
              51.30253464154063
            ],
            [
              37.852827314833775,
              51.30254994781771
            ],
            [
              37.85283207756717,
              51.30259062205997
            ],
            [
              37.852885667693954,
              51.30267410030552
            ],
            [
              37.85315209418326,
              51.30290883871592
            ],
            [
              37.85357132245497,
              51.303224689877226
            ],
            [
              37.854149960781825,
              51.30363227488732
            ],
            [
              37.85476971534908,
              51.30407866867358
            ],
            [
              37.85510016106434,
              51.304284239025804
            ],
            [
              37.855769641299446,
              51.30464087259051
            ],
            [
              37.85634196301095,
              51.304948273165365
            ],
            [
              37.857060444441345,
              51.30525671490105
            ],
            [
              37.85776323287752,
              51.30554483482271
            ],
            [
              37.85796719600137,
              51.305625012390664
            ],
            [
              37.858015272115466,
              51.305633958854486
            ],
            [
              37.85803993298521,
              51.30565242524966
            ],
            [
              37.85804434315929,
              51.30567006453683
            ],
            [
              37.85818760325651,
              51.30574691489494
            ],
            [
              37.858435895812505,
              51.30585520109946
            ],
            [
              37.85874579009766,
              51.30600251849222
            ],
            [
              37.8593761238437,
              51.30628862187888
            ],
            [
              37.85982005979349,
              51.30651854657151
            ],
            [
              37.86022597181105,
              51.306704574667464
            ],
            [
              37.86071347696469,
              51.30682891380454
            ],
            [
              37.86137939280081,
              51.306863225943914
            ],
            [
              37.86179743528368,
              51.30687766985102
            ],
            [
              37.86208502142631,
              51.3068836285218
            ],
            [
              37.862508103326945,
              51.306883619034636
            ],
            [
              37.86315391011178,
              51.30690762106164
            ],
            [
              37.86358687100349,
              51.30690587915316
            ],
            [
              37.86483396742943,
              51.30691838417923
            ],
            [
              37.86486719904238,
              51.306896136089875
            ],
            [
              37.86494800028524,
              51.30690211995167
            ],
            [
              37.86499894895073,
              51.306938116208045
            ],
            [
              37.86599086241375,
              51.306977793904196
            ],
            [
              37.86689309798368,
              51.30700781957299
            ],
            [
              37.86752588089914,
              51.30704279341006
            ],
            [
              37.86866435804362,
              51.30716116758009
            ],
            [
              37.869737096104046,
              51.30725525138217
            ],
            [
              37.87103575627643,
              51.30739567123831
            ],
            [
              37.871474624000314,
              51.307518000856334
            ],
            [
              37.872491358574734,
              51.307957642883395
            ],
            [
              37.87306590080311,
              51.30821251720195
            ],
            [
              37.87335171270499,
              51.30833320400404
            ],
            [
              37.87343255844539,
              51.30833234220074
            ],
            [
              37.87351141257545,
              51.30835823609664
            ],
            [
              37.87357012340601,
              51.308434669532375
            ],
            [
              37.87416844600574,
              51.30868080443159
            ],
            [
              37.87468680121819,
              51.308889711246366
            ],
            [
              37.87571648079941,
              51.30929486087513
            ],
            [
              37.87673168241096,
              51.30969980974902
            ],
            [
              37.876956434175185,
              51.30974975940558
            ],
            [
              37.877054168446136,
              51.30977227910327
            ],
            [
              37.877066109135825,
              51.309849928914076
            ],
            [
              37.87744727833132,
              51.31001907737112
            ],
            [
              37.877934841730365,
              51.31022946067523
            ],
            [
              37.87843855599343,
              51.31044650740134
            ],
            [
              37.87895311705623,
              51.310649981147805
            ],
            [
              37.87967706433727,
              51.310949201602455
            ],
            [
              37.880133382145345,
              51.31057292894252
            ],
            [
              37.88015997407598,
              51.31047268939312
            ],
            [
              37.880276939104306,
              51.31042235220275
            ],
            [
              37.880480203532386,
              51.31027988104961
            ],
            [
              37.88128896324804,
              51.309559385004945
            ],
            [
              37.88222544427509,
              51.308737810516874
            ],
            [
              37.88292718089497,
              51.30806705850432
            ],
            [
              37.883725058735024,
              51.3073464532369
            ]
          ],
          "type": "LineString"
        }
      },
      {
        "type": "Feature",
        "properties": {},
        "geometry": {
          "coordinates": [
            [
              37.883721146582786,
              51.30734759659953
            ],
            [
              37.88369787318058,
              51.307302267619775
            ],
            [
              37.88377033796627,
              51.30726015213742
            ],
            [
              37.88387679977819,
              51.30723616871151
            ],
            [
              37.88432564638197,
              51.306815422854555
            ],
            [
              37.88480630670452,
              51.306382394690246
            ],
            [
              37.88537585032449,
              51.3058646732222
            ],
            [
              37.885689904622154,
              51.30559786324275
            ],
            [
              37.887819334470805,
              51.303648710079415
            ],
            [
              37.888908510118426,
              51.3026965709075
            ],
            [
              37.889290054404796,
              51.3023011450085
            ],
            [
              37.8892805827505,
              51.30224357868184
            ],
            [
              37.88932403769357,
              51.302216198038565
            ],
            [
              37.88942973472689,
              51.30220183107963
            ],
            [
              37.88974053903027,
              51.30195166323972
            ],
            [
              37.89005275433476,
              51.30163166668882
            ],
            [
              37.8903714585193,
              51.301353511682635
            ],
            [
              37.890710249086766,
              51.301042785029495
            ],
            [
              37.89120996747144,
              51.300558019958174
            ],
            [
              37.89146090239632,
              51.300313701929184
            ],
            [
              37.89150738314288,
              51.30015452522164
            ],
            [
              37.89144587778077,
              51.300076387318455
            ],
            [
              37.89074319379972,
              51.299754862280594
            ],
            [
              37.8901421907303,
              51.299497390110844
            ],
            [
              37.89008674522495,
              51.29941034327402
            ],
            [
              37.89016227824351,
              51.29927340959901
            ],
            [
              37.89028399667427,
              51.2992411366362
            ],
            [
              37.89050168986378,
              51.29926264522055
            ],
            [
              37.89082932269261,
              51.29939226351007
            ],
            [
              37.89142952492577,
              51.29963061713735
            ],
            [
              37.892645767009554,
              51.30016550780917
            ],
            [
              37.893668726619495,
              51.30066637822097
            ],
            [
              37.894334406247594,
              51.301079406702485
            ],
            [
              37.89461230754367,
              51.30128293992976
            ],
            [
              37.89530447511805,
              51.301583701910914
            ],
            [
              37.89592512554211,
              51.30184789864296
            ],
            [
              37.89663864804376,
              51.302165719081785
            ],
            [
              37.896719671089556,
              51.30214994580325
            ],
            [
              37.89679442745165,
              51.30218418512089
            ],
            [
              37.896803452696304,
              51.3022500681746
            ],
            [
              37.89706622795936,
              51.30235961089895
            ],
            [
              37.897331540694154,
              51.30247346584352
            ],
            [
              37.8977604263342,
              51.302656158776074
            ],
            [
              37.89803045407797,
              51.30277602378334
            ],
            [
              37.898360351974134,
              51.30292995524195
            ],
            [
              37.898737710428776,
              51.30308536890294
            ],
            [
              37.89915483731701,
              51.30327551263113
            ],
            [
              37.89953054293187,
              51.3034438252831
            ],
            [
              37.900195863781335,
              51.30371369558125
            ],
            [
              37.90144833410915,
              51.304263005232826
            ],
            [
              37.902660560373874,
              51.304783315598115
            ],
            [
              37.90348882439088,
              51.30514319639431
            ],
            [
              37.90459851976894,
              51.30563129581063
            ],
            [
              37.90610265159938,
              51.306287702027305
            ],
            [
              37.9073838817429,
              51.306848775781134
            ],
            [
              37.90854450369352,
              51.307373666132264
            ],
            [
              37.90933273329222,
              51.30769780757319
            ],
            [
              37.90941262076146,
              51.30767339869624
            ],
            [
              37.909492524517304,
              51.307707342660564
            ],
            [
              37.909473998379184,
              51.307766390225225
            ],
            [
              37.910021105808056,
              51.30799562980101
            ],
            [
              37.91061028957196,
              51.30821323626563
            ],
            [
              37.911055064836745,
              51.30833090928178
            ],
            [
              37.91131301886992,
              51.30837124800945
            ],
            [
              37.91145638288711,
              51.30847835217136
            ],
            [
              37.911491418365415,
              51.308598811560785
            ],
            [
              37.911403690242224,
              51.30869976724418
            ],
            [
              37.911277452940595,
              51.30875715970757
            ],
            [
              37.911106463628556,
              51.30880443060599
            ],
            [
              37.91081486268965,
              51.309010610508665
            ],
            [
              37.91051871090826,
              51.30924050879827
            ],
            [
              37.910163453112204,
              51.30952089364911
            ],
            [
              37.90977349834972,
              51.309883009477744
            ],
            [
              37.909466806587176,
              51.31017036930953
            ],
            [
              37.90947767150391,
              51.31022400359038
            ],
            [
              37.90942159100936,
              51.31025945886907
            ],
            [
              37.90929387151874,
              51.31031047760899
            ],
            [
              37.909075829973574,
              51.31049516035915
            ],
            [
              37.908917620749776,
              51.310644761632375
            ],
            [
              37.908682166050426,
              51.31086952343179
            ],
            [
              37.908403947243556,
              51.31112267650704
            ],
            [
              37.908203678238124,
              51.311302187480834
            ],
            [
              37.90797296967736,
              51.311520145841655
            ],
            [
              37.9077171869894,
              51.31174590540704
            ],
            [
              37.907452406155784,
              51.31199801528416
            ],
            [
              37.90749173364813,
              51.31203579114921
            ],
            [
              37.907436744619076,
              51.31206347343726
            ],
            [
              37.907328810334974,
              51.31210101538406
            ],
            [
              37.907030360894424,
              51.31236363428232
            ],
            [
              37.90669755019047,
              51.312660196649745
            ],
            [
              37.90624877766467,
              51.31305994169264
            ],
            [
              37.905980921076974,
              51.313302566202566
            ],
            [
              37.90570924516629,
              51.313555718382105
            ],
            [
              37.90542877589246,
              51.31380949713849
            ],
            [
              37.90537516666916,
              51.31388924899895
            ],
            [
              37.90536561604935,
              51.31397589559913
            ],
            [
              37.90533362447968,
              51.31409304262709
            ],
            [
              37.90526545038696,
              51.31414084571264
            ],
            [
              37.9051305882646,
              51.31416906899605
            ],
            [
              37.90493739778739,
              51.31415365800282
            ],
            [
              37.904832142931156,
              51.31408035954172
            ],
            [
              37.904782826994136,
              51.31395934011326
            ],
            [
              37.90469912563273,
              51.31388165062236
            ],
            [
              37.904507964968275,
              51.31377182396653
            ],
            [
              37.90412388530618,
              51.31361940982765
            ],
            [
              37.90404134072432,
              51.31362375022783
            ],
            [
              37.903973669097326,
              51.313592817342
            ],
            [
              37.9039547353309,
              51.313531436099964
            ],
            [
              37.903333389502365,
              51.31325776305613
            ],
            [
              37.90285532355591,
              51.31305388176773
            ],
            [
              37.90224969301852,
              51.31278360214441
            ],
            [
              37.90164922279223,
              51.3125372691745
            ],
            [
              37.90111437782571,
              51.31229688464393
            ],
            [
              37.9006963747386,
              51.31211855043318
            ],
            [
              37.90031470993483,
              51.31195482528764
            ],
            [
              37.899992627838856,
              51.31181805102207
            ],
            [
              37.89963936353112,
              51.31167424412263
            ],
            [
              37.899300413842354,
              51.311536661892745
            ],
            [
              37.89911243346586,
              51.31146062225267
            ],
            [
              37.899054071947404,
              51.311467487174696
            ],
            [
              37.89900190309584,
              51.31145194211689
            ],
            [
              37.89896849031999,
              51.311392110077975
            ],
            [
              37.89870162608335,
              51.311263390915855
            ],
            [
              37.89828445351509,
              51.31109749599716
            ],
            [
              37.89760287140126,
              51.310800991203195
            ],
            [
              37.89737391858,
              51.31100678586324
            ],
            [
              37.89705123228322,
              51.311300635132085
            ],
            [
              37.8968219983289,
              51.31151218607269
            ],
            [
              37.89675415142733,
              51.31158145696034
            ],
            [
              37.896785142799956,
              51.311614805794136
            ],
            [
              37.89675357822267,
              51.31163800120075
            ],
            [
              37.89666020806891,
              51.31165675090202
            ],
            [
              37.896257552743265,
              51.31201943134664
            ],
            [
              37.895791238086105,
              51.31242731866311
            ],
            [
              37.89539133600357,
              51.31279111751678
            ],
            [
              37.895160551666606,
              51.31301316972548
            ],
            [
              37.89470889479679,
              51.31341058906864
            ],
            [
              37.89435970770012,
              51.313730230532826
            ],
            [
              37.893959497971906,
              51.31409237392458
            ],
            [
              37.89346470851223,
              51.31454085977322
            ],
            [
              37.893141975688195,
              51.31483955912023
            ],
            [
              37.892694246713404,
              51.31525330178195
            ],
            [
              37.8927024085867,
              51.315303851100964
            ],
            [
              37.89266506466146,
              51.31532867940223
            ],
            [
              37.892480040021326,
              51.31542532479031
            ],
            [
              37.892050956566834,
              51.3158275812857
            ],
            [
              37.89164250863516,
              51.31618276997344
            ],
            [
              37.89121115458042,
              51.31657354200527
            ],
            [
              37.89066028350186,
              51.317059753209605
            ],
            [
              37.890153412071385,
              51.31749896332195
            ],
            [
              37.889970482095464,
              51.31770131301937
            ],
            [
              37.88998501555429,
              51.31773930142887
            ],
            [
              37.88994566613789,
              51.3177676126582
            ],
            [
              37.88983834680616,
              51.317782889520345
            ],
            [
              37.889337494259024,
              51.31826272958784
            ],
            [
              37.888903721889534,
              51.31863660924478
            ],
            [
              37.88832469087109,
              51.319169742810516
            ],
            [
              37.88771732122683,
              51.31970903214892
            ],
            [
              37.88747619214877,
              51.3199337037436
            ],
            [
              37.88715405341452,
              51.32020422512818
            ],
            [
              37.886885937142694,
              51.32043724155196
            ],
            [
              37.88654500929073,
              51.32073577117018
            ],
            [
              37.886130588510525,
              51.32111210762608
            ],
            [
              37.88575826464745,
              51.32147956629382
            ],
            [
              37.88578709838583,
              51.32151884460154
            ],
            [
              37.88574797348869,
              51.321534607871456
            ],
            [
              37.885595145894285,
              51.32162006968932
            ],
            [
              37.88514344058896,
              51.322009402102
            ],
            [
              37.88472591194531,
              51.32239554778178
            ],
            [
              37.88429288072342,
              51.32278473684079
            ],
            [
              37.883947060976425,
              51.3230925727417
            ],
            [
              37.883558737495434,
              51.32345468151257
            ],
            [
              37.88320995443493,
              51.32377315707049
            ],
            [
              37.88269764207524,
              51.324243313611504
            ],
            [
              37.88238933173491,
              51.32450923488224
            ],
            [
              37.88238958960446,
              51.324593557028095
            ],
            [
              37.88234789149621,
              51.32463426431113
            ]
          ],
          "type": "LineString"
        }
      }
    ]
  }