{
    "type": "FeatureCollection",
    "features": [
      {
        "type": "Feature",
        "properties": {},
        "geometry": {
          "type": "LineString",
          "coordinates": [
            [
              37.784734,
              51.243027
            ],
            [
              37.785006,
              51.243291
            ],
            [
              37.785105,
              51.243534
            ],
            [
              37.784039,
              51.243743
            ],
            [
              37.782953,
              51.243952
            ],
            [
              37.782347,
              51.244063
            ],
            [
              37.781323,
              51.244257
            ],
            [
              37.780761,
              51.244425
            ],
            [
              37.780381,
              51.24462
            ],
            [
              37.780157,
              51.244789
            ],
            [
              37.779758,
              51.245232
            ],
            [
              37.779354,
              51.245666
            ],
            [
              37.779079,
              51.246007
            ],
            [
              37.778975,
              51.246351
            ],
            [
              37.779025,
              51.246563
            ],
            [
              37.779123,
              51.246793
            ],
            [
              37.77928,
              51.247142
            ],
            [
              37.779456,
              51.247535
            ],
            [
              37.779571,
              51.247796
            ],
            [
              37.779668,
              51.248023
            ],
            [
              37.779814,
              51.248354
            ],
            [
              37.779957,
              51.248678
            ],
            [
              37.780051,
              51.248889
            ],
            [
              37.780065,
              51.249148
            ],
            [
              37.780069,
              51.249297
            ],
            [
              37.779983,
              51.249618
            ],
            [
              37.779926,
              51.249837
            ],
            [
              37.779764,
              51.250011
            ],
            [
              37.77961,
              51.250177
            ],
            [
              37.779432,
              51.250319
            ],
            [
              37.779242,
              51.25046
            ],
            [
              37.778862,
              51.250759
            ],
            [
              37.778575,
              51.250983
            ],
            [
              37.77818,
              51.251292
            ],
            [
              37.777758,
              51.251622
            ],
            [
              37.777401,
              51.251902
            ],
            [
              37.777091,
              51.252145
            ],
            [
              37.776657,
              51.252486
            ],
            [
              37.776489,
              51.252835
            ],
            [
              37.776541,
              51.252874
            ],
            [
              37.777443,
              51.253315
            ],
            [
              37.785706,
              51.25759
            ],
            [
              37.787634,
              51.25875
            ],
            [
              37.79015,
              51.261009
            ],
            [
              37.793644,
              51.264138
            ],
            [
              37.796153,
              51.266293
            ],
            [
              37.799596,
              51.268178
            ],
            [
              37.804326,
              51.270742
            ],
            [
              37.805597,
              51.271451
            ],
            [
              37.806171,
              51.271539
            ],
            [
              37.806664,
              51.271599
            ],
            [
              37.806792,
              51.271799
            ],
            [
              37.806766,
              51.27199
            ],
            [
              37.806942,
              51.27226
            ],
            [
              37.807248,
              51.27261
            ],
            [
              37.80784,
              51.273435
            ],
            [
              37.808513,
              51.274476
            ],
            [
              37.809277,
              51.275656
            ],
            [
              37.81007,
              51.276852
            ],
            [
              37.810518,
              51.277562
            ],
            [
              37.810961,
              51.278222
            ],
            [
              37.811246,
              51.278655
            ],
            [
              37.811517,
              51.279034
            ],
            [
              37.812105,
              51.279494
            ],
            [
              37.812766,
              51.280002
            ],
            [
              37.812844,
              51.28001
            ],
            [
              37.812865,
              51.280084
            ],
            [
              37.813238,
              51.280401
            ],
            [
              37.813552,
              51.280649
            ],
            [
              37.813907,
              51.280929
            ],
            [
              37.814258,
              51.281227
            ],
            [
              37.814727,
              51.281613
            ],
            [
              37.815272,
              51.282043
            ],
            [
              37.815558,
              51.282289
            ],
            [
              37.815638,
              51.282303
            ],
            [
              37.815702,
              51.282401
            ],
            [
              37.815856,
              51.282548
            ],
            [
              37.816192,
              51.282885
            ],
            [
              37.816526,
              51.283162
            ],
            [
              37.816904,
              51.283486
            ],
            [
              37.817225,
              51.283722
            ],
            [
              37.817702,
              51.2841
            ],
            [
              37.818007,
              51.284343
            ],
            [
              37.818353,
              51.284626
            ],
            [
              37.8187,
              51.2849
            ],
            [
              37.818934,
              51.285087
            ],
            [
              37.819305,
              51.285365
            ],
            [
              37.819591,
              51.285583
            ],
            [
              37.819987,
              51.285883
            ],
            [
              37.820292,
              51.286106
            ],
            [
              37.820355,
              51.286103
            ],
            [
              37.820375,
              51.286179
            ],
            [
              37.820872,
              51.286558
            ],
            [
              37.821193,
              51.286806
            ],
            [
              37.821348,
              51.2869
            ],
            [
              37.821755,
              51.286901
            ],
            [
              37.822295,
              51.286949
            ],
            [
              37.822434,
              51.287078
            ],
            [
              37.822421,
              51.287242
            ],
            [
              37.822257,
              51.28756
            ],
            [
              37.821999,
              51.287684
            ],
            [
              37.821793,
              51.287713
            ],
            [
              37.821554,
              51.28766
            ],
            [
              37.82078,
              51.287537
            ],
            [
              37.820403,
              51.287474
            ],
            [
              37.820283,
              51.287354
            ],
            [
              37.820332,
              51.287225
            ],
            [
              37.820472,
              51.287123
            ],
            [
              37.820838,
              51.286963
            ],
            [
              37.82078,
              51.286834
            ],
            [
              37.820263,
              51.286405
            ],
            [
              37.820193,
              51.2864
            ]
          ]
        }
      }
    ]
  }