{
    "type": "FeatureCollection",
    "features": [
      {
        "type": "Feature",
        "properties": {},
        "geometry": {
          "coordinates": [
            [
              37.72661161949759,
              51.27766475741572
            ],
            [
              37.72828767627453,
              51.27778469173177
            ],
            [
              37.72997924582029,
              51.27787381931654
            ],
            [
              37.73171213813413,
              51.27799950145172
            ],
            [
              37.73200535414256,
              51.27804470345103
            ],
            [
              37.73241463220947,
              51.2781955097895
            ],
            [
              37.732732336645114,
              51.278421133852106
            ],
            [
              37.732928565854365,
              51.27858947439984
            ],
            [
              37.73325338408583,
              51.27887821565625
            ],
            [
              37.73410239632298,
              51.279593881575266
            ],
            [
              37.73438831415439,
              51.27987375749305
            ],
            [
              37.734727787203695,
              51.28012207211498
            ],
            [
              37.73502493429311,
              51.28023663303483
            ],
            [
              37.735395396473734,
              51.28028890278188
            ],
            [
              37.73575421560059,
              51.28034033814569
            ],
            [
              37.73665119115171,
              51.280384217108576
            ],
            [
              37.7370866331122,
              51.280433314400426
            ],
            [
              37.737877735696856,
              51.28049882060043
            ],
            [
              37.739368301076155,
              51.280611618678506
            ],
            [
              37.73983551379746,
              51.28065720886548
            ],
            [
              37.74113229415576,
              51.280720287408656
            ],
            [
              37.742517108422305,
              51.280816939846545
            ],
            [
              37.745031998113916,
              51.280959256931
            ],
            [
              37.74629160012714,
              51.280980297727126
            ],
            [
              37.74870709833266,
              51.28088508699278
            ],
            [
              37.74974939936658,
              51.28089465936043
            ],
            [
              37.75056450973216,
              51.28095405767908
            ],
            [
              37.75199232546191,
              51.281192039242626
            ],
            [
              37.75383679476968,
              51.28144088167957
            ],
            [
              37.75530282306781,
              51.28159103745077
            ],
            [
              37.75818032882199,
              51.28190591904513
            ],
            [
              37.759706467192075,
              51.28201020109134
            ],
            [
              37.76114280810276,
              51.28209616362929
            ],
            [
              37.76325009179624,
              51.28217074452178
            ],
            [
              37.76343843283706,
              51.28214714069631
            ],
            [
              37.76354730205924,
              51.28220143354318
            ],
            [
              37.76443344788953,
              51.28226137906677
            ],
            [
              37.766799563430766,
              51.282433758779405
            ],
            [
              37.768458743539725,
              51.282566015073286
            ],
            [
              37.76979785332844,
              51.28264929358156
            ],
            [
              37.77087190144195,
              51.282714472468
            ],
            [
              37.77187815108013,
              51.2828169679608
            ],
            [
              37.772702869418595,
              51.282886395186125
            ],
            [
              37.77274639675824,
              51.28284475648286
            ],
            [
              37.77296659387966,
              51.28293604128328
            ],
            [
              37.77465391833786,
              51.28308658073351
            ],
            [
              37.77628276221972,
              51.28325097989622
            ],
            [
              37.7778052930654,
              51.28339060173201
            ],
            [
              37.77798964414515,
              51.28335056495746
            ],
            [
              37.778204720403465,
              51.2834418487526
            ],
            [
              37.77997446741523,
              51.28365452766835
            ],
            [
              37.78115226397037,
              51.2837778412343
            ],
            [
              37.782033052459354,
              51.283883537260294
            ],
            [
              37.78349541355374,
              51.284054992970226
            ],
            [
              37.78568363081533,
              51.28426928559912
            ],
            [
              37.7869510726552,
              51.28441625686608
            ],
            [
              37.78738890646818,
              51.28441945973489
            ],
            [
              37.787625165137115,
              51.28442752654337
            ],
            [
              37.7877659888772,
              51.28432983895726
            ],
            [
              37.78800922988424,
              51.284276991488184
            ],
            [
              37.7882115039848,
              51.28431222314117
            ],
            [
              37.788372811179016,
              51.28440510645993
            ],
            [
              37.78844450326568,
              51.28446756237915
            ],
            [
              37.788721029882794,
              51.28457325681791
            ],
            [
              37.78911789678932,
              51.28467414673733
            ],
            [
              37.78938674211349,
              51.28473019659708
            ],
            [
              37.790200614796504,
              51.28483066455027
            ],
            [
              37.79096106299616,
              51.28492194540428
            ],
            [
              37.79231356344866,
              51.28506573398775
            ],
            [
              37.79283589150603,
              51.2851233847789
            ],
            [
              37.79297671524614,
              51.28508815374818
            ],
            [
              37.79319435193602,
              51.28516822423359
            ],
            [
              37.7935989001372,
              51.285211462237214
            ],
            [
              37.79476307412688,
              51.28534086595684
            ],
            [
              37.79545439067306,
              51.28543694999311
            ],
            [
              37.79586149930577,
              51.285478586346414
            ],
            [
              37.797412011384836,
              51.28566601580707
            ],
            [
              37.79817245958441,
              51.28575088944905
            ],
            [
              37.79985907826628,
              51.28594274964507
            ],
            [
              37.80105473922754,
              51.286089208489926
            ],
            [
              37.80182286872355,
              51.286191696451795
            ],
            [
              37.802043065844884,
              51.28618048684203
            ],
            [
              37.80213012052087,
              51.286214115662546
            ],
            [
              37.80321341817054,
              51.286361368760964
            ],
            [
              37.804140294429175,
              51.28647346429281
            ],
            [
              37.80518017690551,
              51.286596427116166
            ],
            [
              37.806254985135666,
              51.28672560221392
            ],
            [
              37.806974466430574,
              51.28681527795038
            ],
            [
              37.80804285823638,
              51.286931044167176
            ],
            [
              37.8083654726247,
              51.286959868401055
            ],
            [
              37.80847301075468,
              51.286950260325455
            ],
            [
              37.80864199924349,
              51.2870175168151
            ],
            [
              37.809351852857105,
              51.28708533356291
            ],
            [
              37.81017375141718,
              51.28720863668971
            ],
            [
              37.812396935332885,
              51.28741100837178
            ],
            [
              37.812496792168275,
              51.28738858974475
            ],
            [
              37.81260176986501,
              51.28746545356279
            ],
            [
              37.81347231662616,
              51.28756953977788
            ],
            [
              37.81495954812951,
              51.287750249916314
            ],
            [
              37.81590690784043,
              51.28784472759688
            ],
            [
              37.816598094152425,
              51.28786791400512
            ],
            [
              37.81724076249756,
              51.2878406916557
            ],
            [
              37.817727244511644,
              51.2877558218764
            ],
            [
              37.818508181159984,
              51.28762451464914
            ],
            [
              37.818989542311016,
              51.28753644181859
            ],
            [
              37.819412013533,
              51.287449970147804
            ],
            [
              37.81943761784845,
              51.28738911961571
            ],
            [
              37.81966293583463,
              51.28741954489183
            ],
            [
              37.82028512501037,
              51.287216178640136
            ],
            [
              37.82061542069334,
              51.287048037958016
            ],
            [
              37.8209790036984,
              51.28692633633747
            ],
            [
              37.82126577203826,
              51.286924734985604
            ],
            [
              37.82160808693598,
              51.286910975749265
            ],
            [
              37.82202287686505,
              51.286922185180714
            ],
            [
              37.822289161756004,
              51.28697022556955
            ],
            [
              37.82240950204374,
              51.287063103513304
            ],
            [
              37.822450468950166,
              51.28718960937542
            ],
            [
              37.82238389772655,
              51.287314513555174
            ],
            [
              37.822314766058156,
              51.287463437325016
            ],
            [
              37.822235392676845,
              51.28758673943665
            ],
            [
              37.82222515094898,
              51.28769562933795
            ],
            [
              37.82247607325064,
              51.28790219917593
            ],
            [
              37.82289914306679,
              51.28831758841366
            ],
            [
              37.82353010139431,
              51.28883438212125
            ],
            [
              37.82403828261306,
              51.28928876468177
            ],
            [
              37.824435234664406,
              51.28964551320905
            ],
            [
              37.82452741020347,
              51.28968554449611
            ],
            [
              37.824583739699165,
              51.289797631914524
            ],
            [
              37.825052298692384,
              51.29023156776768
            ],
            [
              37.82573913660076,
              51.29089687634635
            ],
            [
              37.826420207203,
              51.29149092221189
            ],
            [
              37.82748074707115,
              51.292301904289445
            ],
            [
              37.828696244931734,
              51.29326046723588
            ],
            [
              37.82951269545083,
              51.29386901009323
            ],
            [
              37.830184159502664,
              51.2943450863483
            ],
            [
              37.83086017130381,
              51.29475471915643
            ],
            [
              37.831710234612586,
              51.29513257106862
            ],
            [
              37.83284016136997,
              51.29563611639472
            ],
            [
              37.83405085281257,
              51.296183762587276
            ],
            [
              37.83495467847325,
              51.29657441188965
            ],
            [
              37.83505453530694,
              51.296659265370835
            ],
            [
              37.8352900950193,
              51.29647995216993
            ],
            [
              37.83581497679748,
              51.29597882889203
            ],
            [
              37.83583802068139,
              51.29589717622204
            ],
            [
              37.836022371761146,
              51.295817124443204
            ],
            [
              37.83683606105333,
              51.29509090034409
            ],
            [
              37.838805035208225,
              51.29597308180942
            ],
            [
              37.84080343553876,
              51.29685685485782
            ],
            [
              37.84303925888949,
              51.29786546952218
            ],
            [
              37.84518719306868,
              51.298861574434284
            ],
            [
              37.847022507724915,
              51.29966046694102
            ],
            [
              37.84708584994905,
              51.29965420837868
            ],
            [
              37.84712940553604,
              51.29971264585413
            ],
            [
              37.84830401338141,
              51.30025777125084
            ],
            [
              37.84981813822321,
              51.30094822292111
            ],
            [
              37.85146420438349,
              51.30169945986074
            ],
            [
              37.852088950180075,
              51.301997215464354
            ],
            [
              37.85245253147485,
              51.302251745366334
            ],
            [
              37.852723937230536,
              51.30251908028447
            ],
            [
              37.852818673201114,
              51.30254949553557
            ],
            [
              37.852834035792114,
              51.30261512837754
            ],
            [
              37.85325749059396,
              51.30298947026574
            ],
            [
              37.85399259413208,
              51.30355028946346
            ],
            [
              37.854893402761036,
              51.304178867965874
            ],
            [
              37.85639110538966,
              51.30499358331713
            ],
            [
              37.85778653971644,
              51.30556503672304
            ],
            [
              37.857945286479094,
              51.30562426247383
            ],
            [
              37.85805026417589,
              51.30560505413092
            ],
            [
              37.85807330806142,
              51.3056898909189
            ],
            [
              37.859401983089725,
              51.30633455582179
            ],
            [
              37.86021024118128,
              51.30670364037235
            ],
            [
              37.86096869097619,
              51.30686305921995
            ],
            [
              37.86208759960914,
              51.30688066638527
            ],
            [
              37.86360519364058,
              51.306906898169615
            ],
            [
              37.864806031433744,
              51.30693090947267
            ],
            [
              37.864890525678106,
              51.30689569517375
            ],
            [
              37.86495197603858,
              51.306934110771664
            ],
            [
              37.86613232421894,
              51.306979405478074
            ],
            [
              37.867214088373146,
              51.30701622142763
            ],
            [
              37.86818449196966,
              51.30680333496531
            ],
            [
              37.86848488382077,
              51.306776848903866
            ],
            [
              37.86930422194928,
              51.30661358183161
            ],
            [
              37.87007830595644,
              51.30650974661219
            ],
            [
              37.871189532841754,
              51.30650334516716
            ],
            [
              37.872856372947666,
              51.30657057452598
            ],
            [
              37.87426692329228,
              51.30662179802923
            ],
            [
              37.87523988691649,
              51.30664741116374
            ],
            [
              37.875388391952924,
              51.306607394665264
            ],
            [
              37.87550105094439,
              51.30664741116374
            ],
            [
              37.87705267311344,
              51.30668102734461
            ],
            [
              37.87859485960041,
              51.30670562359282
            ],
            [
              37.88001360518166,
              51.30672932832405
            ],
            [
              37.881040818280354,
              51.30674269280925
            ],
            [
              37.881517058568164,
              51.30671708230739
            ],
            [
              37.881983057128195,
              51.3066002342114
            ],
            [
              37.8835289351849,
              51.305967357369724
            ],
            [
              37.88352360191993,
              51.305918171031976
            ],
            [
              37.883723315588924,
              51.30588935869886
            ],
            [
              37.88409201774675,
              51.30571648431982
            ],
            [
              37.8850288766844,
              51.305321617201514
            ],
            [
              37.885354051504294,
              51.30515994566261
            ],
            [
              37.886078653660576,
              51.30487501819829
            ],
            [
              37.88645924699384,
              51.30473621596968
            ],
            [
              37.88671529015858,
              51.304676989072846
            ],
            [
              37.88686123476347,
              51.30452171819738
            ],
            [
              37.8877037932821,
              51.3037603060246
            ],
            [
              37.88866395647054,
              51.30289908800606
            ],
            [
              37.88930390317026,
              51.30229384765002
            ],
            [
              37.889293661442366,
              51.302228214348645
            ],
            [
              37.88948057295366,
              51.302165782584495
            ],
            [
              37.88976478086718,
              51.30191445385441
            ],
            [
              37.89061008790185,
              51.301138697753174
            ],
            [
              37.89121435025413,
              51.300547979596246
            ],
            [
              37.891487121026415,
              51.300280954116175
            ],
            [
              37.891466637572336,
              51.300146479890685
            ],
            [
              37.89129508865199,
              51.300000799035644
            ],
            [
              37.890900782177,
              51.299837507857006
            ],
            [
              37.89016459254202,
              51.29951106759867
            ],
            [
              37.89009034002382,
              51.29943742576506
            ],
            [
              37.890080098297574,
              51.299341371022365
            ],
            [
              37.89017483426818,
              51.29929014174397
            ],
            [
              37.89030601810987,
              51.29921836005701
            ],
            [
              37.890487808756404,
              51.29924557566079
            ],
            [
              37.890956367749624,
              51.2994488917202
            ],
            [
              37.892451659833455,
              51.30009405404061
            ],
            [
              37.89305955095378,
              51.3003488500994
            ],
            [
              37.89364463255555,
              51.30065524500978
            ],
            [
              37.89397492823855,
              51.30083294104
            ],
            [
              37.89444878147603,
              51.30117900677118
            ],
            [
              37.89464337428197,
              51.30130067120723
            ],
            [
              37.8951631419078,
              51.30152158738602
            ],
            [
              37.89580763296695,
              51.301809964271
            ],
            [
              37.89662141302995,
              51.30216067175485
            ],
            [
              37.89674175331763,
              51.30213665951254
            ],
            [
              37.896920983532624,
              51.3022871360229
            ],
            [
              37.898094942205546,
              51.3028119343974
            ],
            [
              37.89916775991867,
              51.30328736863234
            ],
            [
              37.90052322331371,
              51.30387102794245
            ],
            [
              37.90164223882155,
              51.30437049969669
            ],
            [
              37.90293948612117,
              51.304917602645475
            ],
            [
              37.90435926832441,
              51.30553619702002
            ],
            [
              37.90581489219957,
              51.3061632929074
            ],
            [
              37.906828524811914,
              51.30661030620644
            ],
            [
              37.90795517409694,
              51.307104079526766
            ],
            [
              37.90911184312128,
              51.30763188683514
            ],
            [
              37.909329479811134,
              51.307708716766285
            ],
            [
              37.909408853192446,
              51.307679905556796
            ],
            [
              37.90958296254607,
              51.3077983515233
            ],
            [
              37.910625027151866,
              51.30820892733746
            ],
            [
              37.91100852192437,
              51.30832803107867
            ],
            [
              37.91118519170948,
              51.308345637681924
            ],
            [
              37.91132345501808,
              51.30836804607671
            ],
            [
              37.91146427875816,
              51.30849609383628
            ],
            [
              37.91147708091762,
              51.30860653474156
            ],
            [
              37.91142075142022,
              51.30868656421762
            ],
            [
              37.91128209683458,
              51.30875362568017
            ],
            [
              37.911113169417035,
              51.30879586585442
            ],
            [
              37.91091045651598,
              51.308941066156876
            ],
            [
              37.910521923454894,
              51.309242025320316
            ],
            [
              37.90981223542974,
              51.30985784252047
            ],
            [
              37.909483760123095,
              51.310174269388455
            ],
            [
              37.90950487605079,
              51.310213868327054
            ],
            [
              37.90935706456099,
              51.310269306783425
            ],
            [
              37.90850129154518,
              51.311026321072774
            ],
            [
              37.90746934857842,
              51.31198309625498
            ],
            [
              37.90751580361771,
              51.31204381221946
            ],
            [
              37.907237073379065,
              51.31217844298544
            ],
            [
              37.90626907876944,
              51.313040437182565
            ],
            [
              37.90538312138054,
              51.31385441834425
            ],
            [
              37.90536622863806,
              51.314007521770066
            ],
            [
              37.90535778226763,
              51.314110470337994
            ],
            [
              37.90511283751246,
              51.31418438198784
            ],
            [
              37.904893231868954,
              51.31415534528236
            ],
            [
              37.90478342904791,
              51.31403919827707
            ],
            [
              37.90473275082334,
              51.31393097012122
            ],
            [
              37.904576492951776,
              51.313830660873805
            ],
            [
              37.904318878639515,
              51.313717152773535
            ],
            [
              37.904124612108944,
              51.31363268144659
            ],
            [
              37.904002139732114,
              51.313645880101575
            ],
            [
              37.903917676022644,
              51.31355876890797
            ],
            [
              37.90376141816088,
              51.313461098584696
            ],
            [
              37.901509992937946,
              51.3124836820908
            ],
            [
              37.900145920978304,
              51.3118793049168
            ],
            [
              37.89916492582785,
              51.31146757917739
            ],
            [
              37.899055123005354,
              51.311462299465376
            ],
            [
              37.89898332885306,
              51.31142006174568
            ],
            [
              37.898845728331054,
              51.311319880858946
            ],
            [
              37.89758821922484,
              51.31078286912043
            ],
            [
              37.896790037177794,
              51.311535233129035
            ],
            [
              37.896793627531906,
              51.31162152937415
            ],
            [
              37.896616253743815,
              51.311679605973524
            ],
            [
              37.89524840191146,
              51.312904549778494
            ],
            [
              37.89364393054964,
              51.31436660645406
            ],
            [
              37.892672348556545,
              51.31525075741445
            ],
            [
              37.89269768766812,
              51.315311469055246
            ],
            [
              37.89248652839652,
              51.315411775067986
            ],
            [
              37.89155161965678,
              51.31626132400507
            ],
            [
              37.890548280579395,
              51.31718206446237
            ],
            [
              37.890002484793825,
              51.31763930928358
            ],
            [
              37.88999826160858,
              51.31773433121637
            ],
            [
              37.88987156604503,
              51.31777920261652
            ],
            [
              37.88884533198251,
              51.318666063630445
            ],
            [
              37.887746971311316,
              51.31968725287143
            ],
            [
              37.88667855242841,
              51.32063257564877
            ],
            [
              37.88579962204514,
              51.321446512890844
            ],
            [
              37.88576583656163,
              51.32153360910746
            ],
            [
              37.88555467728861,
              51.32163654078684
            ],
            [
              37.88424411186131,
              51.32282855996095
            ],
            [
              37.883233362022736,
              51.323741507004854
            ],
            [
              37.882350155580866,
              51.3245411926782
            ],
            [
              37.88236282513665,
              51.32462828301823
            ],
            [
              37.88228680779909,
              51.32469162134362
            ]
          ],
          "type": "LineString"
        }
      }
    ]
  }