{
    "type": "FeatureCollection",
    "features": [
      {
        "type": "Feature",
        "properties": {},
        "geometry": {
          "type": "LineString",
          "coordinates": [
            [
              37.882306,
              51.32424
            ],
            [
              37.882646,
              51.324026
            ],
            [
              37.882927,
              51.323748
            ],
            [
              37.882933,
              51.323542
            ],
            [
              37.882962,
              51.323314
            ],
            [
              37.882847,
              51.323141
            ],
            [
              37.882313,
              51.322909
            ],
            [
              37.881001,
              51.322346
            ],
            [
              37.880872,
              51.32232
            ],
            [
              37.880829,
              51.322278
            ],
            [
              37.880684,
              51.322223
            ],
            [
              37.880305,
              51.322061
            ],
            [
              37.880662,
              51.322125
            ],
            [
              37.881016,
              51.322226
            ],
            [
              37.881167,
              51.322242
            ],
            [
              37.881211,
              51.322263
            ],
            [
              37.881241,
              51.322307
            ],
            [
              37.881904,
              51.322579
            ],
            [
              37.882725,
              51.322892
            ],
            [
              37.883502,
              51.323194
            ],
            [
              37.883979,
              51.322785
            ],
            [
              37.884826,
              51.322072
            ],
            [
              37.885748,
              51.321252
            ],
            [
              37.886644,
              51.320432
            ],
            [
              37.887788,
              51.319403
            ],
            [
              37.88855,
              51.318705
            ],
            [
              37.889199,
              51.318112
            ],
            [
              37.889736,
              51.317623
            ],
            [
              37.889726,
              51.31753
            ],
            [
              37.889888,
              51.317487
            ],
            [
              37.89055,
              51.316918
            ],
            [
              37.891243,
              51.31628
            ],
            [
              37.89262,
              51.315014
            ],
            [
              37.892607,
              51.31497
            ],
            [
              37.892772,
              51.314903
            ],
            [
              37.893092,
              51.314617
            ],
            [
              37.893336,
              51.3144
            ],
            [
              37.893597,
              51.314168
            ],
            [
              37.89398,
              51.313816
            ],
            [
              37.894352,
              51.313486
            ],
            [
              37.895659,
              51.312302
            ],
            [
              37.89749,
              51.310625
            ],
            [
              37.898826,
              51.311212
            ],
            [
              37.900381,
              51.311893
            ],
            [
              37.900515,
              51.311906
            ],
            [
              37.900597,
              51.31195
            ],
            [
              37.900588,
              51.311992
            ],
            [
              37.901473,
              51.312384
            ],
            [
              37.902221,
              51.312703
            ],
            [
              37.902749,
              51.312935
            ],
            [
              37.903375,
              51.31319
            ],
            [
              37.904089,
              51.313506
            ],
            [
              37.90484,
              51.313802
            ],
            [
              37.905105,
              51.31381
            ],
            [
              37.905379,
              51.313627
            ],
            [
              37.905392,
              51.313506
            ],
            [
              37.905566,
              51.313456
            ],
            [
              37.906107,
              51.312985
            ],
            [
              37.906608,
              51.312526
            ],
            [
              37.907039,
              51.31214
            ],
            [
              37.907504,
              51.311729
            ],
            [
              37.907944,
              51.31133
            ],
            [
              37.908405,
              51.31091
            ],
            [
              37.908889,
              51.310457
            ],
            [
              37.909098,
              51.310265
            ],
            [
              37.909097,
              51.310191
            ],
            [
              37.909243,
              51.310133
            ],
            [
              37.909584,
              51.309824
            ],
            [
              37.910024,
              51.309436
            ],
            [
              37.910392,
              51.309053
            ],
            [
              37.910668,
              51.308698
            ],
            [
              37.910757,
              51.308566
            ],
            [
              37.910177,
              51.308294
            ],
            [
              37.909216,
              51.307825
            ],
            [
              37.908338,
              51.307436
            ],
            [
              37.90807,
              51.307381
            ],
            [
              37.907831,
              51.307236
            ],
            [
              37.90609,
              51.306442
            ],
            [
              37.904559,
              51.305777
            ],
            [
              37.903045,
              51.305115
            ],
            [
              37.901606,
              51.304483
            ],
            [
              37.900118,
              51.303877
            ],
            [
              37.899449,
              51.303583
            ],
            [
              37.89929,
              51.303589
            ],
            [
              37.899137,
              51.303442
            ],
            [
              37.897947,
              51.302908
            ],
            [
              37.896455,
              51.302253
            ],
            [
              37.894918,
              51.301589
            ],
            [
              37.8947,
              51.301566
            ],
            [
              37.894504,
              51.301408
            ],
            [
              37.893313,
              51.300884
            ],
            [
              37.892056,
              51.300347
            ],
            [
              37.891666,
              51.300381
            ],
            [
              37.891008,
              51.300947
            ],
            [
              37.890322,
              51.301566
            ],
            [
              37.889681,
              51.302156
            ],
            [
              37.889237,
              51.302562
            ],
            [
              37.889195,
              51.302675
            ],
            [
              37.889056,
              51.302731
            ],
            [
              37.888503,
              51.30322
            ],
            [
              37.887806,
              51.303854
            ],
            [
              37.886979,
              51.304593
            ],
            [
              37.885988,
              51.305483
            ],
            [
              37.885264,
              51.306157
            ],
            [
              37.884564,
              51.306793
            ],
            [
              37.883921,
              51.307354
            ],
            [
              37.883117,
              51.308057
            ],
            [
              37.883023,
              51.308237
            ],
            [
              37.882637,
              51.308503
            ],
            [
              37.881944,
              51.309143
            ],
            [
              37.881208,
              51.309804
            ],
            [
              37.880633,
              51.310316
            ],
            [
              37.879856,
              51.310999
            ],
            [
              37.879688,
              51.311134
            ],
            [
              37.878498,
              51.310605
            ],
            [
              37.876967,
              51.309966
            ],
            [
              37.876372,
              51.309718
            ],
            [
              37.876274,
              51.309721
            ],
            [
              37.876113,
              51.309591
            ],
            [
              37.874859,
              51.309071
            ],
            [
              37.87404,
              51.308732
            ],
            [
              37.873938,
              51.308725
            ],
            [
              37.873766,
              51.30862
            ],
            [
              37.872673,
              51.308126
            ],
            [
              37.871592,
              51.307644
            ],
            [
              37.871147,
              51.307486
            ],
            [
              37.870724,
              51.307425
            ],
            [
              37.869296,
              51.307276
            ],
            [
              37.867979,
              51.307164
            ],
            [
              37.866887,
              51.30706
            ],
            [
              37.865629,
              51.307025
            ],
            [
              37.864397,
              51.306988
            ],
            [
              37.863724,
              51.306975
            ],
            [
              37.863665,
              51.307017
            ],
            [
              37.863284,
              51.306966
            ],
            [
              37.862539,
              51.30698
            ],
            [
              37.861912,
              51.307082
            ],
            [
              37.860843,
              51.307458
            ],
            [
              37.860213,
              51.30765
            ],
            [
              37.859433,
              51.307787
            ],
            [
              37.858238,
              51.307767
            ],
            [
              37.857826,
              51.307734
            ],
            [
              37.857643,
              51.30777
            ],
            [
              37.857355,
              51.307631
            ],
            [
              37.85608,
              51.30726
            ],
            [
              37.854642,
              51.306781
            ],
            [
              37.853059,
              51.306262
            ],
            [
              37.85205,
              51.30593
            ],
            [
              37.85107,
              51.305437
            ],
            [
              37.850358,
              51.305089
            ],
            [
              37.850234,
              51.305103
            ],
            [
              37.85012,
              51.30494
            ],
            [
              37.849159,
              51.304342
            ],
            [
              37.848295,
              51.303753
            ],
            [
              37.847217,
              51.303147
            ],
            [
              37.846247,
              51.302474
            ],
            [
              37.845465,
              51.301786
            ],
            [
              37.844826,
              51.30131
            ],
            [
              37.844049,
              51.300844
            ],
            [
              37.841981,
              51.299845
            ],
            [
              37.840374,
              51.299077
            ],
            [
              37.83881,
              51.298388
            ],
            [
              37.837403,
              51.297734
            ],
            [
              37.835931,
              51.297079
            ],
            [
              37.835024,
              51.296676
            ],
            [
              37.834848,
              51.29664
            ],
            [
              37.834511,
              51.296487
            ],
            [
              37.8342,
              51.296357
            ],
            [
              37.834122,
              51.296364
            ],
            [
              37.834039,
              51.296286
            ],
            [
              37.83305,
              51.295843
            ],
            [
              37.831936,
              51.29537
            ],
            [
              37.830704,
              51.294843
            ],
            [
              37.829765,
              51.29429
            ],
            [
              37.82858,
              51.293405
            ],
            [
              37.827695,
              51.29272
            ],
            [
              37.826636,
              51.29189
            ],
            [
              37.825762,
              51.291164
            ],
            [
              37.824917,
              51.290369
            ],
            [
              37.824094,
              51.289583
            ],
            [
              37.823987,
              51.289571
            ],
            [
              37.823923,
              51.289411
            ],
            [
              37.823241,
              51.28881
            ],
            [
              37.822413,
              51.288083
            ],
            [
              37.822131,
              51.287832
            ],
            [
              37.821827,
              51.28771
            ],
            [
              37.820864,
              51.287542
            ],
            [
              37.820232,
              51.287449
            ],
            [
              37.819878,
              51.287415
            ],
            [
              37.819576,
              51.287438
            ],
            [
              37.818608,
              51.287623
            ],
            [
              37.818243,
              51.287692
            ],
            [
              37.818207,
              51.287748
            ],
            [
              37.817915,
              51.287742
            ],
            [
              37.817204,
              51.287851
            ],
            [
              37.816656,
              51.287875
            ],
            [
              37.815998,
              51.287856
            ],
            [
              37.815146,
              51.287785
            ],
            [
              37.814295,
              51.287684
            ],
            [
              37.813164,
              51.287555
            ],
            [
              37.811967,
              51.287409
            ],
            [
              37.810962,
              51.287299
            ],
            [
              37.809594,
              51.287139
            ],
            [
              37.808582,
              51.287024
            ],
            [
              37.807457,
              51.286889
            ],
            [
              37.807396,
              51.286915
            ],
            [
              37.807152,
              51.286854
            ],
            [
              37.805949,
              51.286711
            ],
            [
              37.804588,
              51.286536
            ],
            [
              37.803424,
              51.286399
            ],
            [
              37.802238,
              51.286257
            ],
            [
              37.80088,
              51.286094
            ],
            [
              37.800788,
              51.286119
            ],
            [
              37.800487,
              51.286042
            ],
            [
              37.799015,
              51.285875
            ],
            [
              37.797875,
              51.28574
            ],
            [
              37.796775,
              51.285615
            ],
            [
              37.795474,
              51.285455
            ],
            [
              37.793975,
              51.285278
            ],
            [
              37.793807,
              51.285291
            ],
            [
              37.793439,
              51.285203
            ],
            [
              37.791418,
              51.284979
            ],
            [
              37.79012,
              51.28483
            ],
            [
              37.788979,
              51.284692
            ],
            [
              37.788408,
              51.28469
            ],
            [
              37.788252,
              51.284787
            ],
            [
              37.787973,
              51.284836
            ],
            [
              37.787755,
              51.284778
            ],
            [
              37.787573,
              51.284632
            ],
            [
              37.787405,
              51.28457
            ],
            [
              37.786934,
              51.284422
            ],
            [
              37.785696,
              51.284289
            ],
            [
              37.784577,
              51.284168
            ],
            [
              37.783691,
              51.284077
            ],
            [
              37.782389,
              51.283929
            ],
            [
              37.781251,
              51.283809
            ],
            [
              37.779938,
              51.283657
            ],
            [
              37.772981,
              51.282934
            ],
            [
              37.77013,
              51.282653
            ],
            [
              37.762267,
              51.282134
            ],
            [
              37.759509,
              51.282006
            ],
            [
              37.754758,
              51.281553
            ],
            [
              37.755467,
              51.27824
            ],
            [
              37.756144,
              51.274961
            ],
            [
              37.756799,
              51.271948
            ],
            [
              37.757646,
              51.268436
            ],
            [
              37.758443,
              51.265938
            ],
            [
              37.75836,
              51.265793
            ],
            [
              37.758314,
              51.265526
            ],
            [
              37.758116,
              51.265302
            ],
            [
              37.757865,
              51.265214
            ],
            [
              37.757338,
              51.265164
            ],
            [
              37.756834,
              51.265106
            ],
            [
              37.756489,
              51.264811
            ],
            [
              37.755045,
              51.261399
            ],
            [
              37.753848,
              51.258452
            ],
            [
              37.752754,
              51.258269
            ],
            [
              37.752923,
              51.257889
            ],
            [
              37.752586,
              51.257887
            ]
          ]
        }
      }
    ]
  }