{
    "type": "FeatureCollection",
    "features": [
      {
        "type": "Feature",
        "properties": {},
        "geometry": {
          "type": "LineString",
          "coordinates": [
            [
              37.794709,
              51.243226
            ],
            [
              37.793612,
              51.243437
            ],
            [
              37.79321,
              51.243327
            ],
            [
              37.792855,
              51.243316
            ],
            [
              37.791797,
              51.243504
            ],
            [
              37.789145,
              51.244005
            ],
            [
              37.788657,
              51.242922
            ],
            [
              37.787323,
              51.243128
            ],
            [
              37.785015,
              51.243564
            ],
            [
              37.78333,
              51.243871
            ],
            [
              37.781301,
              51.244256
            ],
            [
              37.780733,
              51.244435
            ],
            [
              37.780369,
              51.244627
            ],
            [
              37.780134,
              51.244816
            ],
            [
              37.779704,
              51.245285
            ],
            [
              37.779188,
              51.24586
            ],
            [
              37.779065,
              51.246022
            ],
            [
              37.778977,
              51.246363
            ],
            [
              37.779027,
              51.246583
            ],
            [
              37.779378,
              51.247381
            ],
            [
              37.779793,
              51.248304
            ],
            [
              37.780055,
              51.248905
            ],
            [
              37.780076,
              51.249319
            ],
            [
              37.779924,
              51.24984
            ],
            [
              37.779608,
              51.25018
            ],
            [
              37.779059,
              51.250609
            ],
            [
              37.77784,
              51.251563
            ],
            [
              37.77665,
              51.252486
            ],
            [
              37.776472,
              51.252873
            ],
            [
              37.774651,
              51.253101
            ],
            [
              37.77284,
              51.253343
            ],
            [
              37.771011,
              51.253486
            ],
            [
              37.769104,
              51.253434
            ],
            [
              37.768778,
              51.253267
            ],
            [
              37.768794,
              51.252604
            ],
            [
              37.768588,
              51.252071
            ],
            [
              37.767517,
              51.25091
            ],
            [
              37.767781,
              51.250026
            ],
            [
              37.768156,
              51.248838
            ],
            [
              37.768047,
              51.248501
            ],
            [
              37.766481,
              51.247618
            ],
            [
              37.765769,
              51.246977
            ],
            [
              37.765137,
              51.246683
            ],
            [
              37.763857,
              51.246344
            ],
            [
              37.761925,
              51.245854
            ],
            [
              37.758957,
              51.245241
            ],
            [
              37.757041,
              51.244804
            ],
            [
              37.756709,
              51.244597
            ],
            [
              37.756609,
              51.244382
            ],
            [
              37.756706,
              51.244123
            ],
            [
              37.75709,
              51.243547
            ],
            [
              37.757294,
              51.243216
            ],
            [
              37.757441,
              51.243058
            ],
            [
              37.757716,
              51.242938
            ],
            [
              37.758063,
              51.242906
            ],
            [
              37.758371,
              51.242951
            ],
            [
              37.760512,
              51.243478
            ],
            [
              37.761465,
              51.243719
            ],
            [
              37.762085,
              51.243769
            ],
            [
              37.763348,
              51.243842
            ],
            [
              37.763998,
              51.243879
            ]
          ]
        }
      }
    ]
  }