{"type":"FeatureCollection","features":[{"type":"Feature","properties":{},"geometry":{"coordinates":[[37.79640126531379,51.266473136203956],[37.798005197436396,51.26737670179244]],"type":"LineString"}},{"type":"Feature","properties":{},"geometry":{"coordinates":[[37.79799746876421,51.26737233185992],[37.798728842391114,51.26770215090511],[37.7994106176551,51.26806833730495],[37.800907724243274,51.26889150381871],[37.802749256362006,51.269900695314846],[37.80445949387993,51.270832271570754],[37.80562797029526,51.27145242897191],[37.80610916630408,51.27152936231232],[37.80625239318266,51.271553640501054],[37.806401580852594,51.27152362865721],[37.806700621545616,51.2716377879772],[37.80680258827638,51.271736022700225],[37.80677701831465,51.271863042693695],[37.80677458239728,51.27197016735889],[37.80685477615532,51.27210455492204],[37.806986365593474,51.272284517321594],[37.807158525016206,51.272473080842644],[37.80737523568655,51.272756429860465],[37.808238741277364,51.27408290835177],[37.80908466871341,51.27537913134208],[37.80999675161607,51.276755548103296],[37.8111519844048,51.278518297381],[37.811538610725364,51.279018384443646],[37.81188928773287,51.279332095262305],[37.812792721892095,51.28001966556687],[37.81429066293376,51.28125855576613],[37.81607147874442,51.282758015337265],[37.81773592151947,51.2841748256277],[37.81915559186132,51.285269447418074],[37.82114429504176,51.28679583149278],[37.82133284035126,51.28688956503353],[37.82164647477444,51.28694306461671],[37.82202515560601,51.286939726576804],[37.822249723112805,51.28696354776994],[37.82237889469408,51.28697300485106],[37.8224206222809,51.287039461151835],[37.822422491208386,51.287145354804096],[37.82226998363166,51.28751853797564],[37.82217233690062,51.28764220148136],[37.82197658530907,51.28769243799414],[37.821857188225295,51.2877140356284],[37.820733412644614,51.287539076082595],[37.81997160228863,51.287404367149804],[37.81950359085192,51.28744730923697],[37.81797876144708,51.28771713289569],[37.81670985583992,51.2878706097415],[37.81549432872296,51.287797580394965],[37.814171105989374,51.28765873060769],[37.811840551672134,51.287382284103785],[37.809907816805946,51.287165573961914],[37.80759090043259,51.28688643418013],[37.805209023049144,51.28660671722329],[37.80251138398293,51.28627126890456],[37.80066366525614,51.286049469460465],[37.79700567064509,51.28563804049389],[37.79052251525735,51.284865293166774],[37.78948691407862,51.28473949807284]],"type":"LineString"}},{"type":"Feature","properties":{},"geometry":{"coordinates":[[37.7947234914669,51.24322167250526],[37.79358945975824,51.24344131101759],[37.7932248590576,51.24332666262282],[37.792890501731904,51.24331509258559],[37.79201008344839,51.243464451026],[37.7905768790921,51.243732664248085],[37.78915018600648,51.24400446456622],[37.78885796984716,51.2433828476579],[37.78865287105717,51.24291958767142],[37.78748500605917,51.24309872944809]],"type":"LineString"}},{"type":"Feature","properties":{},"geometry":{"coordinates":[[37.78748939731386,51.24309832860595],[37.78510014743125,51.24354253881123],[37.78405364551264,51.243740079512094],[37.78233144244072,51.24406861112263],[37.78156755159202,51.24421005121698],[37.78099779822915,51.244346576762894],[37.78076179584784,51.24442624096238],[37.78038812407462,51.244611613205365],[37.78015012234738,51.24476678472385],[37.779887596852234,51.24509322769018],[37.779542383918,51.24546657117193],[37.779038225117574,51.24608100172537],[37.7789628382078,51.246206879989785],[37.77899903813878,51.24646923464252],[37.77921782988375,51.247024100907424],[37.779458121441905,51.24753341257221],[37.779666546425545,51.24800402599024],[37.780032354661614,51.24885722744972],[37.780058538449424,51.24895061150718],[37.780069897430394,51.24927590631037],[37.77996778497925,51.24965422904876],[37.779929893522365,51.249833638062],[37.77961551008053,51.25016798306075],[37.77939687312542,51.2503406130684],[37.778952623146864,51.250689878534985],[37.77827314274157,51.251219220962696],[37.777285920604584,51.25199699371632],[37.776671852417564,51.2524787963612],[37.77660608886276,51.252575701966435],[37.7764995191294,51.25285737280828],[37.77712045119489,51.253133471419375],[37.77803829005953,51.25361232017897],[37.7795210545558,51.25437695521967],[37.78098937483847,51.25511522700867],[37.78208063149199,51.25567885495386],[37.78321475993391,51.25626341081633],[37.78444939151328,51.25693326911184],[37.78534221030759,51.25739174394678],[37.78629353109122,51.25790399104642],[37.78710996422092,51.258400158084356],[37.78757770895314,51.258683772701744],[37.78773179750729,51.25885656190138],[37.78835154838907,51.25939284062241],[37.7921134369505,51.26278425467686],[37.79619766590929,51.266335166472174],[37.79640373662829,51.26647674122668]],"type":"LineString"}},{"type":"Feature","properties":{},"geometry":{"coordinates":[[37.78951807846286,51.284742801479524],[37.788841550444005,51.284693895950255],[37.78839762201534,51.28469097140717],[37.788131638881794,51.2848306057048],[37.78772190403933,51.28480406089366],[37.787660046957484,51.28470768326977],[37.78758577052642,51.28464399664128],[37.78706476391898,51.28445557841928],[37.78651345733283,51.28436618319839],[37.78635114561797,51.28436585391836],[37.78503282958965,51.28422063712239],[37.78341341205811,51.28404620410373],[37.78130733458457,51.28381030656823],[37.77972683948181,51.28362625217386],[37.77843393350702,51.28347366021859],[37.777735327075874,51.28340386303361],[37.77587774080058,51.28320925189834],[37.77530253129572,51.283197722972716],[37.77152084982535,51.28279213134849],[37.76973768205727,51.2826423015116],[37.76803172043017,51.28252859478158],[37.765444955897664,51.282333412107874],[37.76191561042293,51.282115421092215],[37.75885199573449,51.28197514302144],[37.754355987661796,51.28150776880889],[37.75252454019363,51.28133087809704],[37.750522246551554,51.28095965453346],[37.7494262352281,51.28089369491482],[37.74844810700367,51.28089240992108],[37.746624878244575,51.280965351464914],[37.74545176270715,51.28095873136394],[37.744435967100486,51.28092320797225],[37.74291489801479,51.28084885893287],[37.739360639241625,51.280610455181375],[37.73694619179088,51.28039839650032],[37.735608147119876,51.280317921922546],[37.735127753540866,51.28026063489088],[37.73463571511388,51.28006211925856],[37.734135485595175,51.27963335681122],[37.73355321875701,51.279133750738254],[37.732652250378266,51.27835328574494],[37.732334377717706,51.278183042334916],[37.73198397913035,51.27805085972119],[37.7317987805917,51.27800562737377],[37.730368962874536,51.27789461172233],[37.728372428553996,51.2777860262031],[37.72659595959735,51.277674172897264]],"type":"LineString"}}]}