{
    "type": "FeatureCollection",
    "features": [
      {
        "type": "Feature",
        "properties": {},
        "geometry": {
          "type": "LineString",
          "coordinates": [
            [
              37.812827,
              51.28001
            ],
            [
              37.812907,
              51.280134
            ],
            [
              37.813103,
              51.280295
            ],
            [
              37.813518,
              51.280636
            ],
            [
              37.813899,
              51.280938
            ],
            [
              37.814293,
              51.281255
            ],
            [
              37.814637,
              51.28154
            ],
            [
              37.814963,
              51.281798
            ],
            [
              37.815549,
              51.28228
            ],
            [
              37.81564,
              51.282301
            ],
            [
              37.815665,
              51.282397
            ],
            [
              37.815833,
              51.282565
            ],
            [
              37.815686,
              51.282656
            ],
            [
              37.815565,
              51.282652
            ],
            [
              37.814974,
              51.282189
            ],
            [
              37.814906,
              51.282172
            ],
            [
              37.814898,
              51.28211
            ],
            [
              37.814412,
              51.281713
            ],
            [
              37.814041,
              51.281416
            ],
            [
              37.813547,
              51.28102
            ],
            [
              37.813149,
              51.280716
            ],
            [
              37.812743,
              51.280388
            ],
            [
              37.812331,
              51.280084
            ],
            [
              37.811893,
              51.279732
            ],
            [
              37.811825,
              51.279726
            ],
            [
              37.811765,
              51.27962
            ],
            [
              37.811428,
              51.279339
            ],
            [
              37.811279,
              51.279119
            ],
            [
              37.810995,
              51.278846
            ],
            [
              37.810695,
              51.278615
            ],
            [
              37.810305,
              51.278284
            ],
            [
              37.809903,
              51.277964
            ],
            [
              37.809571,
              51.277695
            ],
            [
              37.80925,
              51.277413
            ],
            [
              37.808853,
              51.27713
            ],
            [
              37.80853,
              51.276879
            ],
            [
              37.808087,
              51.276606
            ],
            [
              37.807486,
              51.276397
            ],
            [
              37.807394,
              51.276373
            ],
            [
              37.807369,
              51.276385
            ],
            [
              37.80734,
              51.276347
            ],
            [
              37.807014,
              51.276231
            ],
            [
              37.806519,
              51.276042
            ],
            [
              37.805849,
              51.275794
            ],
            [
              37.805481,
              51.275658
            ],
            [
              37.8049,
              51.275446
            ],
            [
              37.80443,
              51.275261
            ],
            [
              37.804,
              51.275099
            ],
            [
              37.803848,
              51.275042
            ],
            [
              37.803715,
              51.27506
            ],
            [
              37.803622,
              51.275149
            ],
            [
              37.803384,
              51.275372
            ],
            [
              37.803229,
              51.275532
            ],
            [
              37.803247,
              51.275553
            ],
            [
              37.803153,
              51.275606
            ],
            [
              37.802627,
              51.276128
            ],
            [
              37.802271,
              51.276488
            ],
            [
              37.80188,
              51.276889
            ],
            [
              37.801571,
              51.27721
            ],
            [
              37.801231,
              51.277571
            ],
            [
              37.801064,
              51.277751
            ],
            [
              37.801072,
              51.277787
            ],
            [
              37.801002,
              51.277817
            ],
            [
              37.800936,
              51.277883
            ],
            [
              37.800744,
              51.278087
            ],
            [
              37.800524,
              51.278302
            ],
            [
              37.800269,
              51.278587
            ],
            [
              37.799988,
              51.27888
            ],
            [
              37.799749,
              51.279112
            ],
            [
              37.799377,
              51.279502
            ],
            [
              37.799131,
              51.279762
            ],
            [
              37.798907,
              51.279991
            ],
            [
              37.798592,
              51.280326
            ],
            [
              37.798354,
              51.280577
            ],
            [
              37.79809,
              51.280866
            ],
            [
              37.797777,
              51.281169
            ],
            [
              37.797542,
              51.281406
            ],
            [
              37.79734,
              51.281626
            ],
            [
              37.797077,
              51.281908
            ],
            [
              37.796916,
              51.282075
            ],
            [
              37.796701,
              51.28229
            ],
            [
              37.796514,
              51.282504
            ],
            [
              37.796341,
              51.282701
            ],
            [
              37.796363,
              51.28273
            ],
            [
              37.796286,
              51.282764
            ],
            [
              37.796209,
              51.282861
            ],
            [
              37.796114,
              51.28305
            ],
            [
              37.795965,
              51.283328
            ],
            [
              37.79584,
              51.283585
            ],
            [
              37.795746,
              51.283846
            ],
            [
              37.795665,
              51.284095
            ],
            [
              37.795542,
              51.284455
            ],
            [
              37.795463,
              51.284725
            ],
            [
              37.795348,
              51.285133
            ],
            [
              37.795281,
              51.285421
            ],
            [
              37.793893,
              51.28527
            ],
            [
              37.793804,
              51.285293
            ],
            [
              37.793584,
              51.285248
            ],
            [
              37.79257,
              51.285108
            ],
            [
              37.791139,
              51.284946
            ],
            [
              37.789577,
              51.284764
            ],
            [
              37.788983,
              51.284688
            ],
            [
              37.788637,
              51.284685
            ],
            [
              37.788393,
              51.284706
            ],
            [
              37.788154,
              51.284824
            ],
            [
              37.787791,
              51.284809
            ],
            [
              37.787607,
              51.284684
            ],
            [
              37.787497,
              51.284609
            ],
            [
              37.786911,
              51.284421
            ],
            [
              37.785916,
              51.284309
            ],
            [
              37.785106,
              51.284232
            ],
            [
              37.784194,
              51.284123
            ],
            [
              37.783358,
              51.284044
            ],
            [
              37.782405,
              51.283942
            ],
            [
              37.781806,
              51.28386
            ],
            [
              37.779037,
              51.283561
            ],
            [
              37.775691,
              51.283178
            ],
            [
              37.77365,
              51.282998
            ],
            [
              37.770939,
              51.282719
            ],
            [
              37.768294,
              51.282571
            ],
            [
              37.763541,
              51.282206
            ],
            [
              37.762255,
              51.282115
            ],
            [
              37.760525,
              51.282072
            ],
            [
              37.758072,
              51.2819
            ],
            [
              37.754298,
              51.281512
            ],
            [
              37.75052,
              51.280961
            ],
            [
              37.749619,
              51.280872
            ],
            [
              37.748524,
              51.280901
            ],
            [
              37.746972,
              51.280954
            ],
            [
              37.746132,
              51.280976
            ],
            [
              37.744743,
              51.280947
            ],
            [
              37.74328,
              51.280878
            ],
            [
              37.739354,
              51.280626
            ],
            [
              37.736724,
              51.280399
            ],
            [
              37.735613,
              51.280333
            ],
            [
              37.734842,
              51.280163
            ],
            [
              37.734288,
              51.279815
            ],
            [
              37.73359,
              51.279188
            ],
            [
              37.732682,
              51.278371
            ],
            [
              37.732004,
              51.278017
            ],
            [
              37.730151,
              51.27789
            ],
            [
              37.728064,
              51.277784
            ],
            [
              37.727573,
              51.277741
            ],
            [
              37.726851,
              51.277674
            ],
            [
              37.726622,
              51.277659
            ]
          ]
        }
      }
    ]
  }