{
    "type": "FeatureCollection",
    "features": [
      {
        "type": "Feature",
        "properties": {},
        "geometry": {
          "type": "LineString",
          "coordinates": [
            [
              37.811813,
              51.279718
            ],
            [
              37.811505,
              51.279402
            ],
            [
              37.811338,
              51.279182
            ],
            [
              37.811178,
              51.279019
            ],
            [
              37.810938,
              51.278794
            ],
            [
              37.810923,
              51.278722
            ],
            [
              37.810996,
              51.278641
            ],
            [
              37.811081,
              51.278612
            ],
            [
              37.811108,
              51.278526
            ],
            [
              37.811089,
              51.278432
            ],
            [
              37.810928,
              51.278181
            ],
            [
              37.81073,
              51.27791
            ],
            [
              37.810581,
              51.277664
            ],
            [
              37.810442,
              51.27745
            ],
            [
              37.810283,
              51.277181
            ],
            [
              37.810084,
              51.276912
            ],
            [
              37.809905,
              51.276597
            ],
            [
              37.809674,
              51.27628
            ],
            [
              37.809469,
              51.27597
            ],
            [
              37.809193,
              51.275521
            ],
            [
              37.80893,
              51.275168
            ],
            [
              37.808723,
              51.274834
            ],
            [
              37.808589,
              51.274629
            ],
            [
              37.808397,
              51.274355
            ],
            [
              37.808207,
              51.27407
            ],
            [
              37.808029,
              51.273798
            ],
            [
              37.807844,
              51.273527
            ],
            [
              37.80769,
              51.273247
            ],
            [
              37.807534,
              51.27304
            ],
            [
              37.807374,
              51.272809
            ],
            [
              37.80726,
              51.272627
            ],
            [
              37.807159,
              51.272516
            ],
            [
              37.807038,
              51.27239
            ],
            [
              37.806916,
              51.272324
            ],
            [
              37.806697,
              51.272207
            ],
            [
              37.806438,
              51.272086
            ],
            [
              37.806162,
              51.272042
            ],
            [
              37.806003,
              51.271947
            ],
            [
              37.805933,
              51.271849
            ],
            [
              37.805947,
              51.271726
            ],
            [
              37.805849,
              51.271641
            ],
            [
              37.805664,
              51.271481
            ],
            [
              37.805374,
              51.27131
            ],
            [
              37.804716,
              51.270958
            ],
            [
              37.803101,
              51.270067
            ],
            [
              37.801261,
              51.269082
            ],
            [
              37.799078,
              51.267903
            ],
            [
              37.797094,
              51.266812
            ],
            [
              37.796127,
              51.266301
            ],
            [
              37.795056,
              51.265388
            ],
            [
              37.793749,
              51.264241
            ],
            [
              37.792101,
              51.26276
            ],
            [
              37.790756,
              51.261558
            ],
            [
              37.789293,
              51.26026
            ],
            [
              37.787944,
              51.259055
            ],
            [
              37.787544,
              51.258671
            ],
            [
              37.786572,
              51.258084
            ],
            [
              37.786406,
              51.257952
            ],
            [
              37.784909,
              51.257157
            ],
            [
              37.783824,
              51.256603
            ],
            [
              37.781483,
              51.255373
            ],
            [
              37.779889,
              51.254559
            ],
            [
              37.77759,
              51.253383
            ],
            [
              37.776499,
              51.252854
            ],
            [
              37.776494,
              51.252824
            ],
            [
              37.776656,
              51.252491
            ],
            [
              37.777037,
              51.252187
            ],
            [
              37.777525,
              51.251804
            ],
            [
              37.77825,
              51.251236
            ],
            [
              37.778868,
              51.250755
            ],
            [
              37.779429,
              51.250319
            ],
            [
              37.779482,
              51.250211
            ],
            [
              37.779629,
              51.250032
            ],
            [
              37.77995,
              51.24965
            ],
            [
              37.779986,
              51.249593
            ],
            [
              37.780077,
              51.249295
            ],
            [
              37.780059,
              51.249101
            ],
            [
              37.78005,
              51.248892
            ],
            [
              37.779825,
              51.248378
            ],
            [
              37.779575,
              51.247812
            ],
            [
              37.779262,
              51.247099
            ],
            [
              37.779026,
              51.246564
            ],
            [
              37.778982,
              51.246367
            ],
            [
              37.77901,
              51.246182
            ],
            [
              37.779085,
              51.246
            ],
            [
              37.779355,
              51.245666
            ],
            [
              37.779575,
              51.245428
            ],
            [
              37.77982,
              51.245162
            ],
            [
              37.780122,
              51.244829
            ],
            [
              37.780377,
              51.244626
            ],
            [
              37.780744,
              51.244433
            ],
            [
              37.780911,
              51.244372
            ],
            [
              37.78134,
              51.244255
            ],
            [
              37.782005,
              51.244127
            ],
            [
              37.783206,
              51.2439
            ],
            [
              37.783683,
              51.243814
            ],
            [
              37.78395,
              51.243759
            ],
            [
              37.784088,
              51.243339
            ],
            [
              37.784319,
              51.243291
            ]
          ]
        }
      }
    ]
  }