{
    "type": "FeatureCollection",
    "features": [
      {
        "type": "Feature",
        "properties": {},
        "geometry": {
          "type": "LineString",
          "coordinates": [
            [
              37.81819,
              51.287757
            ],
            [
              37.817798,
              51.287761
            ],
            [
              37.817167,
              51.287853
            ],
            [
              37.816633,
              51.287875
            ],
            [
              37.816233,
              51.287869
            ],
            [
              37.815603,
              51.287829
            ],
            [
              37.814676,
              51.28773
            ],
            [
              37.813787,
              51.28763
            ],
            [
              37.812755,
              51.287507
            ],
            [
              37.811738,
              51.287387
            ],
            [
              37.810915,
              51.287296
            ],
            [
              37.809948,
              51.287192
            ],
            [
              37.808986,
              51.287068
            ],
            [
              37.808328,
              51.286991
            ],
            [
              37.807711,
              51.286916
            ],
            [
              37.80747,
              51.286895
            ],
            [
              37.807395,
              51.286919
            ],
            [
              37.807216,
              51.286858
            ],
            [
              37.806512,
              51.286768
            ],
            [
              37.806013,
              51.286715
            ],
            [
              37.805213,
              51.286615
            ],
            [
              37.804537,
              51.286531
            ],
            [
              37.803948,
              51.286462
            ],
            [
              37.803418,
              51.286397
            ],
            [
              37.802984,
              51.286346
            ],
            [
              37.802384,
              51.286277
            ],
            [
              37.801797,
              51.286201
            ],
            [
              37.801085,
              51.286117
            ],
            [
              37.800849,
              51.286094
            ],
            [
              37.800782,
              51.286121
            ],
            [
              37.800518,
              51.28605
            ],
            [
              37.799854,
              51.285973
            ],
            [
              37.799319,
              51.285911
            ],
            [
              37.798876,
              51.28586
            ],
            [
              37.798234,
              51.285781
            ],
            [
              37.797458,
              51.285696
            ],
            [
              37.79656,
              51.285592
            ],
            [
              37.795764,
              51.285488
            ],
            [
              37.795137,
              51.285416
            ],
            [
              37.794185,
              51.285306
            ],
            [
              37.793863,
              51.285275
            ],
            [
              37.793797,
              51.28529
            ],
            [
              37.793586,
              51.285239
            ],
            [
              37.792682,
              51.285129
            ],
            [
              37.791824,
              51.285036
            ],
            [
              37.791276,
              51.284961
            ],
            [
              37.79048,
              51.284867
            ],
            [
              37.789702,
              51.284777
            ],
            [
              37.789045,
              51.284697
            ],
            [
              37.788672,
              51.284689
            ],
            [
              37.788403,
              51.284693
            ],
            [
              37.788189,
              51.284809
            ],
            [
              37.78786,
              51.284819
            ],
            [
              37.78767,
              51.284705
            ],
            [
              37.787509,
              51.284614
            ],
            [
              37.786986,
              51.284439
            ],
            [
              37.786304,
              51.284349
            ],
            [
              37.783383,
              51.284035
            ],
            [
              37.7789,
              51.283524
            ],
            [
              37.774376,
              51.283065
            ],
            [
              37.770309,
              51.282678
            ],
            [
              37.766674,
              51.282422
            ],
            [
              37.762756,
              51.282157
            ],
            [
              37.760203,
              51.282073
            ],
            [
              37.757948,
              51.281885
            ],
            [
              37.756315,
              51.281708
            ],
            [
              37.754787,
              51.281561
            ],
            [
              37.755005,
              51.280375
            ],
            [
              37.755384,
              51.278538
            ],
            [
              37.75579,
              51.276692
            ],
            [
              37.756179,
              51.274785
            ],
            [
              37.756502,
              51.27334
            ],
            [
              37.756916,
              51.271334
            ],
            [
              37.757476,
              51.269158
            ],
            [
              37.757806,
              51.26775
            ],
            [
              37.758392,
              51.26597
            ],
            [
              37.758349,
              51.2657
            ],
            [
              37.758306,
              51.265521
            ],
            [
              37.758108,
              51.265298
            ],
            [
              37.75787,
              51.265216
            ],
            [
              37.757615,
              51.2652
            ],
            [
              37.756821,
              51.265102
            ],
            [
              37.756481,
              51.264804
            ],
            [
              37.756278,
              51.264315
            ],
            [
              37.756104,
              51.263912
            ],
            [
              37.755897,
              51.263423
            ],
            [
              37.755736,
              51.263036
            ],
            [
              37.75556,
              51.26263
            ],
            [
              37.755327,
              51.262089
            ],
            [
              37.755152,
              51.261671
            ],
            [
              37.754937,
              51.261143
            ],
            [
              37.75432,
              51.259632
            ],
            [
              37.753847,
              51.258466
            ],
            [
              37.753075,
              51.25832
            ],
            [
              37.752746,
              51.258257
            ],
            [
              37.752931,
              51.257886
            ],
            [
              37.752164,
              51.257912
            ]
          ]
        }
      }
    ]
  }