{
    "type": "FeatureCollection",
    "features": [
      {
        "type": "Feature",
        "properties": {},
        "geometry": {
          "type": "LineString",
          "coordinates": [
            [
              37.819486,
              51.287367
            ],
            [
              37.819695,
              51.287404
            ],
            [
              37.82023,
              51.28722
            ],
            [
              37.820789,
              51.286968
            ],
            [
              37.821199,
              51.286905
            ],
            [
              37.821844,
              51.286912
            ],
            [
              37.822292,
              51.286964
            ],
            [
              37.822441,
              51.287085
            ],
            [
              37.822408,
              51.287283
            ],
            [
              37.822333,
              51.287427
            ],
            [
              37.822191,
              51.287623
            ],
            [
              37.821853,
              51.287719
            ],
            [
              37.821149,
              51.287592
            ],
            [
              37.820257,
              51.287453
            ],
            [
              37.819793,
              51.287413
            ],
            [
              37.819346,
              51.287487
            ],
            [
              37.818609,
              51.287624
            ],
            [
              37.818187,
              51.287702
            ],
            [
              37.81819,
              51.287759
            ],
            [
              37.81797,
              51.28774
            ],
            [
              37.817288,
              51.287842
            ],
            [
              37.816775,
              51.287876
            ],
            [
              37.816168,
              51.287869
            ],
            [
              37.815498,
              51.287822
            ],
            [
              37.814715,
              51.287735
            ],
            [
              37.814079,
              51.287659
            ],
            [
              37.813535,
              51.287594
            ],
            [
              37.812737,
              51.287501
            ],
            [
              37.811912,
              51.287403
            ],
            [
              37.811193,
              51.287327
            ],
            [
              37.810227,
              51.287215
            ],
            [
              37.809387,
              51.287119
            ],
            [
              37.808755,
              51.287043
            ],
            [
              37.808067,
              51.286964
            ],
            [
              37.807457,
              51.286889
            ],
            [
              37.807398,
              51.286918
            ],
            [
              37.807293,
              51.28687
            ],
            [
              37.806741,
              51.286797
            ],
            [
              37.806056,
              51.286723
            ],
            [
              37.805533,
              51.286657
            ],
            [
              37.804943,
              51.286582
            ],
            [
              37.804212,
              51.286488
            ],
            [
              37.803522,
              51.286406
            ],
            [
              37.802605,
              51.286298
            ],
            [
              37.801728,
              51.286197
            ],
            [
              37.800874,
              51.286094
            ],
            [
              37.800786,
              51.286121
            ],
            [
              37.800621,
              51.286062
            ],
            [
              37.799804,
              51.285963
            ],
            [
              37.799083,
              51.285883
            ],
            [
              37.798469,
              51.285815
            ],
            [
              37.797475,
              51.285702
            ],
            [
              37.796786,
              51.285621
            ],
            [
              37.796027,
              51.285523
            ],
            [
              37.795237,
              51.285417
            ],
            [
              37.795332,
              51.285107
            ],
            [
              37.795419,
              51.284769
            ],
            [
              37.795358,
              51.284697
            ],
            [
              37.795472,
              51.284602
            ],
            [
              37.795564,
              51.284239
            ],
            [
              37.795687,
              51.283843
            ],
            [
              37.795795,
              51.283572
            ],
            [
              37.795987,
              51.283206
            ],
            [
              37.796111,
              51.282957
            ],
            [
              37.79608,
              51.282943
            ],
            [
              37.796172,
              51.282834
            ],
            [
              37.796484,
              51.282468
            ],
            [
              37.796868,
              51.282075
            ],
            [
              37.797198,
              51.281727
            ],
            [
              37.797557,
              51.281358
            ],
            [
              37.797936,
              51.280965
            ],
            [
              37.798304,
              51.280583
            ],
            [
              37.798628,
              51.280242
            ],
            [
              37.799031,
              51.279812
            ],
            [
              37.799446,
              51.279389
            ],
            [
              37.799906,
              51.278907
            ],
            [
              37.800297,
              51.278502
            ],
            [
              37.800716,
              51.27806
            ],
            [
              37.801062,
              51.277706
            ],
            [
              37.801304,
              51.277446
            ],
            [
              37.801289,
              51.2774
            ],
            [
              37.801376,
              51.277363
            ],
            [
              37.80178,
              51.276937
            ],
            [
              37.802128,
              51.27657
            ],
            [
              37.802518,
              51.276189
            ],
            [
              37.802836,
              51.275864
            ],
            [
              37.803187,
              51.275516
            ],
            [
              37.80352,
              51.275192
            ],
            [
              37.80376,
              51.275019
            ],
            [
              37.803891,
              51.275029
            ],
            [
              37.803982,
              51.275065
            ],
            [
              37.804086,
              51.275046
            ],
            [
              37.804163,
              51.275133
            ],
            [
              37.804903,
              51.275413
            ],
            [
              37.80577,
              51.27574
            ],
            [
              37.806604,
              51.276046
            ],
            [
              37.806891,
              51.276152
            ],
            [
              37.806965,
              51.276134
            ],
            [
              37.807087,
              51.276232
            ],
            [
              37.807719,
              51.27646
            ],
            [
              37.808077,
              51.276582
            ],
            [
              37.808375,
              51.276766
            ],
            [
              37.808918,
              51.277152
            ],
            [
              37.809486,
              51.277601
            ],
            [
              37.809907,
              51.277937
            ],
            [
              37.810342,
              51.278306
            ],
            [
              37.810723,
              51.278625
            ],
            [
              37.810895,
              51.278662
            ],
            [
              37.810996,
              51.278658
            ],
            [
              37.811068,
              51.278608
            ],
            [
              37.811115,
              51.278509
            ],
            [
              37.810991,
              51.278311
            ],
            [
              37.810674,
              51.277836
            ],
            [
              37.810407,
              51.277429
            ],
            [
              37.810157,
              51.277033
            ],
            [
              37.809833,
              51.276549
            ],
            [
              37.809588,
              51.276166
            ],
            [
              37.809325,
              51.275769
            ],
            [
              37.808979,
              51.275248
            ],
            [
              37.808584,
              51.274641
            ],
            [
              37.808299,
              51.274207
            ],
            [
              37.807965,
              51.273697
            ],
            [
              37.807646,
              51.27321
            ],
            [
              37.807276,
              51.272666
            ],
            [
              37.80701,
              51.272356
            ],
            [
              37.806691,
              51.272209
            ],
            [
              37.806349,
              51.272068
            ],
            [
              37.806062,
              51.272006
            ],
            [
              37.80592,
              51.27182
            ],
            [
              37.805912,
              51.271695
            ],
            [
              37.805626,
              51.271468
            ],
            [
              37.804873,
              51.271052
            ],
            [
              37.802989,
              51.270027
            ],
            [
              37.800476,
              51.268653
            ],
            [
              37.797197,
              51.266873
            ],
            [
              37.796092,
              51.266256
            ],
            [
              37.795449,
              51.265735
            ],
            [
              37.793627,
              51.264135
            ],
            [
              37.791578,
              51.262299
            ],
            [
              37.789437,
              51.260373
            ],
            [
              37.787799,
              51.258926
            ],
            [
              37.787348,
              51.258557
            ],
            [
              37.786331,
              51.257917
            ],
            [
              37.78286,
              51.256084
            ],
            [
              37.778499,
              51.253852
            ],
            [
              37.776476,
              51.252847
            ],
            [
              37.773258,
              51.253267
            ],
            [
              37.770976,
              51.253476
            ],
            [
              37.769081,
              51.253427
            ],
            [
              37.768741,
              51.253225
            ],
            [
              37.768799,
              51.252567
            ],
            [
              37.768587,
              51.252039
            ],
            [
              37.767511,
              51.250884
            ],
            [
              37.768171,
              51.248793
            ],
            [
              37.76804,
              51.248467
            ],
            [
              37.766436,
              51.247579
            ],
            [
              37.765924,
              51.247069
            ],
            [
              37.765271,
              51.24672
            ],
            [
              37.761928,
              51.245839
            ],
            [
              37.756985,
              51.244778
            ],
            [
              37.756676,
              51.244578
            ],
            [
              37.756609,
              51.244319
            ],
            [
              37.756883,
              51.24384
            ],
            [
              37.757309,
              51.243201
            ],
            [
              37.757438,
              51.243049
            ],
            [
              37.757734,
              51.242931
            ],
            [
              37.758074,
              51.242897
            ],
            [
              37.758383,
              51.242951
            ],
            [
              37.759154,
              51.243136
            ],
            [
              37.759852,
              51.24331
            ],
            [
              37.760492,
              51.243475
            ],
            [
              37.761384,
              51.243697
            ],
            [
              37.761483,
              51.243717
            ],
            [
              37.76192,
              51.243751
            ],
            [
              37.763193,
              51.243828
            ],
            [
              37.763978,
              51.243875
            ]
          ]
        }
      }
    ]
  }