{
    "type": "FeatureCollection",
    "features": [
      {
        "type": "Feature",
        "properties": {},
        "geometry": {
          "type": "LineString",
          "coordinates": [
            [
              37.76396,
              51.243873
            ],
            [
              37.762658,
              51.243799
            ],
            [
              37.761464,
              51.243716
            ],
            [
              37.759898,
              51.243323
            ],
            [
              37.758613,
              51.243001
            ],
            [
              37.758069,
              51.242894
            ],
            [
              37.757714,
              51.242935
            ],
            [
              37.757419,
              51.243065
            ],
            [
              37.757223,
              51.24331
            ],
            [
              37.757017,
              51.243662
            ],
            [
              37.756719,
              51.244092
            ],
            [
              37.756611,
              51.244379
            ],
            [
              37.756729,
              51.244603
            ],
            [
              37.757025,
              51.244803
            ],
            [
              37.75834,
              51.245087
            ],
            [
              37.759871,
              51.245428
            ],
            [
              37.761335,
              51.245732
            ],
            [
              37.762058,
              51.245866
            ],
            [
              37.763879,
              51.246346
            ],
            [
              37.764973,
              51.24663
            ],
            [
              37.765439,
              51.246795
            ],
            [
              37.765839,
              51.24701
            ],
            [
              37.766057,
              51.24719
            ],
            [
              37.766511,
              51.247628
            ],
            [
              37.767662,
              51.248264
            ],
            [
              37.768048,
              51.248495
            ],
            [
              37.768166,
              51.248834
            ],
            [
              37.767951,
              51.249528
            ],
            [
              37.76775,
              51.250199
            ],
            [
              37.767524,
              51.250905
            ],
            [
              37.768223,
              51.25166
            ],
            [
              37.768634,
              51.252092
            ],
            [
              37.768786,
              51.252538
            ],
            [
              37.768813,
              51.25264
            ],
            [
              37.768775,
              51.253271
            ],
            [
              37.769146,
              51.253436
            ],
            [
              37.770303,
              51.253474
            ],
            [
              37.771032,
              51.253475
            ],
            [
              37.772399,
              51.253371
            ],
            [
              37.773598,
              51.253231
            ],
            [
              37.775208,
              51.253016
            ],
            [
              37.776496,
              51.252858
            ],
            [
              37.777903,
              51.253546
            ],
            [
              37.779283,
              51.254251
            ],
            [
              37.78151,
              51.255386
            ],
            [
              37.783192,
              51.256262
            ],
            [
              37.785533,
              51.257495
            ],
            [
              37.786463,
              51.258003
            ],
            [
              37.787549,
              51.258695
            ],
            [
              37.789231,
              51.26019
            ],
            [
              37.790634,
              51.261437
            ],
            [
              37.79207,
              51.26274
            ],
            [
              37.793695,
              51.264185
            ],
            [
              37.795068,
              51.265405
            ],
            [
              37.796128,
              51.266304
            ],
            [
              37.798712,
              51.2677
            ],
            [
              37.801418,
              51.269161
            ],
            [
              37.803664,
              51.270383
            ],
            [
              37.805619,
              51.271441
            ],
            [
              37.806198,
              51.271555
            ],
            [
              37.806444,
              51.271536
            ],
            [
              37.806724,
              51.271619
            ],
            [
              37.806812,
              51.271834
            ],
            [
              37.806751,
              51.271962
            ],
            [
              37.80698,
              51.272301
            ],
            [
              37.807323,
              51.272663
            ],
            [
              37.807579,
              51.27305
            ],
            [
              37.80799,
              51.273663
            ],
            [
              37.808297,
              51.274157
            ],
            [
              37.808578,
              51.274583
            ],
            [
              37.808934,
              51.275122
            ],
            [
              37.80934,
              51.275724
            ],
            [
              37.809694,
              51.276258
            ],
            [
              37.810049,
              51.276821
            ],
            [
              37.81031,
              51.277206
            ],
            [
              37.81067,
              51.277771
            ],
            [
              37.810989,
              51.278238
            ],
            [
              37.811263,
              51.278685
            ],
            [
              37.811506,
              51.278999
            ],
            [
              37.811429,
              51.279101
            ],
            [
              37.811285,
              51.279099
            ],
            [
              37.810789,
              51.278684
            ],
            [
              37.809822,
              51.277906
            ],
            [
              37.809074,
              51.277294
            ],
            [
              37.808073,
              51.276611
            ],
            [
              37.807417,
              51.276381
            ],
            [
              37.807355,
              51.276392
            ],
            [
              37.807125,
              51.276283
            ],
            [
              37.806799,
              51.276153
            ],
            [
              37.806159,
              51.275919
            ],
            [
              37.80529,
              51.275589
            ],
            [
              37.804132,
              51.275155
            ],
            [
              37.803827,
              51.275037
            ],
            [
              37.803698,
              51.275073
            ],
            [
              37.803248,
              51.275501
            ],
            [
              37.803241,
              51.275551
            ],
            [
              37.803132,
              51.275623
            ],
            [
              37.802794,
              51.275971
            ],
            [
              37.802236,
              51.276524
            ],
            [
              37.801738,
              51.27704
            ],
            [
              37.801077,
              51.277736
            ],
            [
              37.80108,
              51.277774
            ],
            [
              37.801009,
              51.277803
            ],
            [
              37.800438,
              51.278408
            ],
            [
              37.799869,
              51.279002
            ],
            [
              37.799389,
              51.279501
            ],
            [
              37.798926,
              51.279971
            ],
            [
              37.798538,
              51.280394
            ],
            [
              37.797943,
              51.281005
            ],
            [
              37.797324,
              51.281642
            ],
            [
              37.796723,
              51.282262
            ],
            [
              37.796356,
              51.282675
            ],
            [
              37.796372,
              51.282729
            ],
            [
              37.79626,
              51.28279
            ],
            [
              37.796215,
              51.282859
            ],
            [
              37.796005,
              51.283261
            ],
            [
              37.79583,
              51.283589
            ],
            [
              37.795727,
              51.283875
            ],
            [
              37.795611,
              51.284237
            ],
            [
              37.795483,
              51.284721
            ],
            [
              37.795272,
              51.285413
            ],
            [
              37.796209,
              51.285521
            ],
            [
              37.797116,
              51.285634
            ],
            [
              37.798158,
              51.285751
            ],
            [
              37.799359,
              51.285885
            ],
            [
              37.800025,
              51.285967
            ],
            [
              37.801004,
              51.28608
            ],
            [
              37.801814,
              51.286178
            ],
            [
              37.80206,
              51.286172
            ],
            [
              37.802296,
              51.286243
            ],
            [
              37.802678,
              51.286283
            ],
            [
              37.803427,
              51.286375
            ],
            [
              37.804752,
              51.28652
            ],
            [
              37.805555,
              51.286632
            ],
            [
              37.806159,
              51.286705
            ],
            [
              37.80678,
              51.286776
            ],
            [
              37.807533,
              51.286865
            ],
            [
              37.808147,
              51.286939
            ],
            [
              37.808419,
              51.286978
            ],
            [
              37.808512,
              51.286946
            ],
            [
              37.808779,
              51.287028
            ],
            [
              37.809585,
              51.287122
            ],
            [
              37.810314,
              51.287195
            ],
            [
              37.811237,
              51.287305
            ],
            [
              37.812158,
              51.287404
            ],
            [
              37.812515,
              51.287398
            ],
            [
              37.812742,
              51.287476
            ],
            [
              37.813144,
              51.287525
            ],
            [
              37.814187,
              51.287644
            ],
            [
              37.815229,
              51.287766
            ],
            [
              37.816053,
              51.28784
            ],
            [
              37.816559,
              51.287849
            ],
            [
              37.817029,
              51.28784
            ],
            [
              37.817812,
              51.287746
            ],
            [
              37.818561,
              51.287608
            ],
            [
              37.819193,
              51.287487
            ],
            [
              37.819469,
              51.287433
            ],
            [
              37.819512,
              51.28736
            ]
          ]
        }
      }
    ]
  }