{"type":"FeatureCollection","features":[{"type":"Feature","properties":{},"geometry":{"coordinates":[[37.820264255460074,51.2864188657515],[37.819870731852376,51.2860996851673],[37.81932629554203,51.285677779259515],[37.818813534907946,51.285267445126834],[37.81826395900691,51.28482635906545],[37.81771484249626,51.28438640957654],[37.817314955407056,51.284068778186594],[37.816630272239905,51.28352093028235],[37.81612012584026,51.283102652634966],[37.81560530089817,51.28268698606888],[37.813912870352794,51.28131345187194],[37.81212097957902,51.279907501591225],[37.81140977035432,51.279314977488895],[37.811267330532615,51.279110047998955],[37.81091123097741,51.27878572293733],[37.81096535759667,51.27865919988133],[37.81105367028641,51.27862712356372],[37.81110494862298,51.2785112922293],[37.81096535759667,51.278242206003654],[37.81012362430545,51.27696299542433],[37.809273953451054,51.27565604045441],[37.80818302838222,51.274013078383206],[37.80763101711767,51.27313396629867],[37.807137149716226,51.27247268275124],[37.80695767554042,51.27233366649412],[37.806427799403025,51.272078802263906],[37.80614233069633,51.27204097303081],[37.805994193281094,51.27193581875923],[37.80594006614908,51.2717771957584],[37.8058887878143,51.271684516905935],[37.80571500967713,51.271532405649964],[37.80550989633349,51.27138091044708],[37.80494868343371,51.271090394721284],[37.80401427820263,51.270578868729785],[37.80149024455844,51.269215365332826]],"type":"LineString"}},{"type":"Feature","properties":{},"geometry":{"coordinates":[[37.80149313775212,51.269219829511655],[37.79980665026031,51.26829654574928],[37.79778401360454,51.26718965246204],[37.79614354615197,51.266304639249654],[37.794037634496476,51.264522039350084],[37.79103505442566,51.26183139415363],[37.788380275129214,51.25944800198417],[37.78734190421949,51.258535933061694],[37.78418609947619,51.25679827190464],[37.7817275074093,51.25551986251119],[37.780308618455024,51.25478495239747],[37.77651675529515,51.25286341460699],[37.776487554457646,51.25283210452616],[37.776609171419636,51.252584933452084],[37.77667569938481,51.252466465394065],[37.776968126687535,51.25223810834166],[37.777538262799254,51.25179726683979],[37.77850300057568,51.25103520478493]],"type":"LineString"}},{"type":"Feature","properties":{},"geometry":{"coordinates":[[37.77850236569341,51.25103556856877],[37.778684722538515,51.25089565620621],[37.77943340870095,51.25030868945089],[37.77953179557764,51.250139532855826],[37.77984853239391,51.24977448219127],[37.77996886880433,51.24962793373129],[37.780003740102245,51.24954842123657],[37.78006720291043,51.24929053245228],[37.780050897658356,51.248995303861534],[37.7800452688783,51.24887653282698],[37.77986094916261,51.24846571008004],[37.77965924019236,51.2480042807463],[37.779357852629346,51.247304229281355],[37.779021705405995,51.24655482992776],[37.778975625776724,51.246346384534235],[37.77902917812628,51.24613043781528],[37.77909164521432,51.245983423403885],[37.77931830866589,51.24570783884252],[37.7796596431171,51.24533610159861],[37.78016365321545,51.24478833682542],[37.780411488509856,51.24459577136392],[37.7807724891577,51.24441900894891],[37.78119219013507,51.24429426927864],[37.78135114647637,51.2442501452652],[37.78215816793997,51.2440981181889],[37.78319239004574,51.243902092289886],[37.783947107036,51.243762538316844],[37.78400937721133,51.24356762965178],[37.78413008932273,51.24323697504644],[37.78463945935104,51.243162129361394],[37.78464195015792,51.24316836650675]],"type":"LineString"}}]}