{
    "type": "FeatureCollection",
    "features": [
      {
        "type": "Feature",
        "properties": {},
        "geometry": {
          "coordinates": [
            [
              37.88231409716656,
              51.324248196916784
            ],
            [
              37.88246293691577,
              51.32417085840257
            ],
            [
              37.88283395786303,
              51.32382937486207
            ],
            [
              37.88342859363891,
              51.32325682780811
            ],
            [
              37.883942254413995,
              51.32280936706613
            ],
            [
              37.88470482615338,
              51.3221730358118
            ],
            [
              37.88550353194029,
              51.32145437512426
            ],
            [
              37.88616453359242,
              51.32085953573903
            ],
            [
              37.886625700643094,
              51.320462706315055
            ],
            [
              37.887216694455816,
              51.31991934629713
            ],
            [
              37.88797966693343,
              51.31920918940776
            ],
            [
              37.88864049551108,
              51.31860990883263
            ],
            [
              37.889339050086335,
              51.31798451174075
            ],
            [
              37.88971009703235,
              51.3176382365196
            ],
            [
              37.889690219477586,
              51.31756485431126
            ],
            [
              37.88977187342891,
              51.31746970149766
            ],
            [
              37.890018644981865,
              51.3173828706982
            ],
            [
              37.89042264728647,
              51.317020545469376
            ],
            [
              37.89110872257697,
              51.31640514638687
            ],
            [
              37.89176771227176,
              51.315814524578514
            ],
            [
              37.892489246932456,
              51.31514505418778
            ],
            [
              37.892571476685305,
              51.31507399380783
            ],
            [
              37.892559545572084,
              51.314983178724475
            ],
            [
              37.89263312865185,
              51.31493397195106
            ],
            [
              37.89278236046121,
              51.31489428127355
            ],
            [
              37.892990861671706,
              51.314694513086664
            ],
            [
              37.8935316219613,
              51.314223537868344
            ],
            [
              37.89412380935454,
              51.31369097965509
            ],
            [
              37.894674633156995,
              51.313188606028234
            ],
            [
              37.89520823281666,
              51.312728713320354
            ],
            [
              37.895596926395484,
              51.31237231112496
            ],
            [
              37.89614678127268,
              51.311860843236445
            ],
            [
              37.896436657923005,
              51.311583522944915
            ],
            [
              37.896429997718855,
              51.31152168942981
            ],
            [
              37.8964988735182,
              51.311465058982975
            ],
            [
              37.89666826292705,
              51.31139412564812
            ],
            [
              37.89700848757988,
              51.31108487021615
            ],
            [
              37.89751281630913,
              51.31062892102986
            ],
            [
              37.89814170076113,
              51.310910769798
            ],
            [
              37.89886012117307,
              51.311229019490725
            ],
            [
              37.89960309938235,
              51.311539244429326
            ],
            [
              37.90029907701887,
              51.31185344585239
            ],
            [
              37.90045682580393,
              51.311916225370396
            ],
            [
              37.90050530025948,
              51.31189166701094
            ],
            [
              37.90061997526513,
              51.31194177605923
            ],
            [
              37.90066014709399,
              51.31201604530767
            ],
            [
              37.9008281561147,
              51.312095481356266
            ],
            [
              37.901537643207064,
              51.31240097844491
            ],
            [
              37.902484411821206,
              51.31280686832926
            ],
            [
              37.90363401586268,
              51.31328402180523
            ],
            [
              37.90424450278158,
              51.3135628886169
            ],
            [
              37.90470701847369,
              51.31375738861925
            ],
            [
              37.90492713982508,
              51.31380924012234
            ],
            [
              37.9050682914891,
              51.31381593038313
            ],
            [
              37.90528118603345,
              51.313723315155215
            ],
            [
              37.90543341297479,
              51.313574730760934
            ],
            [
              37.90538402141598,
              51.313532592390374
            ],
            [
              37.90542831266333,
              51.31348003226137
            ],
            [
              37.90558260822334,
              51.31345124125585
            ],
            [
              37.90614165954719,
              51.312953612879426
            ],
            [
              37.90659503059979,
              51.312550317236656
            ],
            [
              37.907002805233134,
              51.312164912954756
            ],
            [
              37.90739208596102,
              51.31181153913863
            ],
            [
              37.90786812131569,
              51.31139417116589
            ],
            [
              37.908292138299885,
              51.31099884660247
            ],
            [
              37.90882328125085,
              51.31052563105075
            ],
            [
              37.909106033727454,
              51.310250857520884
            ],
            [
              37.90908341445325,
              51.310177733873644
            ],
            [
              37.90912999383352,
              51.31013145305431
            ],
            [
              37.909264863024504,
              51.310131403602725
            ],
            [
              37.909347257481954,
              51.31003330905344
            ],
            [
              37.90960112135821,
              51.309807591713735
            ],
            [
              37.91010271463446,
              51.30935077936374
            ],
            [
              37.910379352952674,
              51.3090632132737
            ],
            [
              37.91056491462041,
              51.3088078451984
            ],
            [
              37.91073692972125,
              51.3086147851879
            ],
            [
              37.91076588040656,
              51.308544119739
            ],
            [
              37.91050459396132,
              51.3084307769459
            ],
            [
              37.91012814502227,
              51.30826898552226
            ],
            [
              37.90925781113131,
              51.30782576122846
            ],
            [
              37.90848039211687,
              51.30750379569889
            ],
            [
              37.90815541933446,
              51.30736605039135
            ],
            [
              37.90813402472051,
              51.30741091502986
            ],
            [
              37.90797903154498,
              51.307362208570055
            ],
            [
              37.90792085626069,
              51.30726952684918
            ],
            [
              37.90776642374476,
              51.30718131328433
            ],
            [
              37.90708905342126,
              51.306880677024054
            ],
            [
              37.90639029388714,
              51.306568343577425
            ],
            [
              37.905625223110235,
              51.30623982902824
            ],
            [
              37.9045967205482,
              51.3058033512705
            ],
            [
              37.903690772853736,
              51.30541090595122
            ],
            [
              37.90277415336044,
              51.30499132247522
            ],
            [
              37.90197045227788,
              51.30464383365211
            ],
            [
              37.901038528836125,
              51.30422825973696
            ],
            [
              37.900003847727305,
              51.303828618409
            ],
            [
              37.89942818904501,
              51.30357843013266
            ],
            [
              37.899334670847026,
              51.30360644066701
            ],
            [
              37.89921481936466,
              51.30354110478257
            ],
            [
              37.899082625384295,
              51.30340983274087
            ],
            [
              37.897953526951255,
              51.30291933694795
            ],
            [
              37.897177119103986,
              51.30258547173625
            ],
            [
              37.89610817067651,
              51.302110020304724
            ],
            [
              37.89506447133729,
              51.30166798464455
            ],
            [
              37.894809568072475,
              51.30155836879001
            ],
            [
              37.8947464659953,
              51.30157179462
            ],
            [
              37.89465534568393,
              51.301549320350915
            ],
            [
              37.89456453932095,
              51.301427081518625
            ],
            [
              37.893903587417014,
              51.30113720232953
            ],
            [
              37.892914004998914,
              51.3007108937945
            ],
            [
              37.89207543234306,
              51.30036032192763
            ],
            [
              37.89176438252096,
              51.30037462046013
            ],
            [
              37.8915418113759,
              51.30046271357449
            ],
            [
              37.891323502548545,
              51.30066314187545
            ],
            [
              37.890616680686264,
              51.30131541779153
            ],
            [
              37.89003506494282,
              51.3018363807289
            ],
            [
              37.88966087616993,
              51.302183179990095
            ],
            [
              37.88920093740654,
              51.302597038182626
            ],
            [
              37.889174306697015,
              51.3026765196978
            ],
            [
              37.88911415081017,
              51.302731578049304
            ],
            [
              37.888961113527216,
              51.30279837407889
            ],
            [
              37.888572282915305,
              51.30316370130902
            ],
            [
              37.8880855575882,
              51.30359855867292
            ],
            [
              37.88765276968064,
              51.303986199687245
            ],
            [
              37.887177787176256,
              51.30439606062026
            ],
            [
              37.88673823484393,
              51.30479408163424
            ],
            [
              37.88612928401332,
              51.30537155952743
            ],
            [
              37.88552399898629,
              51.305919981506804
            ],
            [
              37.885125104834486,
              51.3062677572004
            ],
            [
              37.88468294763746,
              51.30668446287535
            ],
            [
              37.88419239132321,
              51.30710354782158
            ],
            [
              37.88338836695857,
              51.30782253709438
            ],
            [
              37.883003851357046,
              51.30817433195537
            ],
            [
              37.88300745561196,
              51.30825130425487
            ],
            [
              37.88293289754645,
              51.308303847497996
            ],
            [
              37.882751375805555,
              51.30838802091267
            ],
            [
              37.8822770134816,
              51.308826851719374
            ],
            [
              37.88182894199031,
              51.30922280555532
            ],
            [
              37.8812511247871,
              51.30976750964837
            ],
            [
              37.88075993983824,
              51.310203905502846
            ],
            [
              37.880313793744875,
              51.310606670941695
            ],
            [
              37.87970152551199,
              51.31113391285206
            ],
            [
              37.879079599885955,
              51.31088468818362
            ],
            [
              37.87808888683,
              51.310456490241336
            ],
            [
              37.876923529851325,
              51.309950367973016
            ],
            [
              37.87633763463347,
              51.30971314922121
            ],
            [
              37.87625866791856,
              51.3097290581338
            ],
            [
              37.876167227724466,
              51.30968418618369
            ],
            [
              37.87609247486213,
              51.30958703146527
            ],
            [
              37.87487606979818,
              51.30908090359088
            ],
            [
              37.87405346780298,
              51.30874160614056
            ],
            [
              37.87396823690872,
              51.30874131469142
            ],
            [
              37.87384424177452,
              51.308690135554855
            ],
            [
              37.8738209673059,
              51.308642740854
            ],
            [
              37.87308862859422,
              51.308315874427024
            ],
            [
              37.87210690120844,
              51.30789051412563
            ],
            [
              37.87114468686926,
              51.30748103455721
            ],
            [
              37.86973045105785,
              51.30732117771754
            ],
            [
              37.868506561259665,
              51.30722101110811
            ],
            [
              37.867568962862805,
              51.30712403216026
            ],
            [
              37.8667230157761,
              51.30706205691831
            ],
            [
              37.86601578971596,
              51.30704563771215
            ],
            [
              37.86518398849341,
              51.30702330133391
            ],
            [
              37.86427973743227,
              51.30699163178804
            ],
            [
              37.86373743959456,
              51.30698385160605
            ],
            [
              37.863725270675076,
              51.307016008521174
            ],
            [
              37.86358556318564,
              51.307013783771765
            ],
            [
              37.86338698873243,
              51.306963530258
            ],
            [
              37.86255556963329,
              51.306975965873136
            ],
            [
              37.86160846091042,
              51.307178431271666
            ],
            [
              37.86082779617195,
              51.30745541826849
            ],
            [
              37.86013048458105,
              51.30766509384193
            ],
            [
              37.85934315152258,
              51.30777757192442
            ],
            [
              37.8584693918574,
              51.30778682584051
            ],
            [
              37.857341376462074,
              51.307643346886834
            ],
            [
              37.856487140979084,
              51.30739398794026
            ],
            [
              37.85552541763448,
              51.30708277932163
            ],
            [
              37.854391140550774,
              51.306705617876815
            ],
            [
              37.85304426386534,
              51.30626792415495
            ],
            [
              37.851944050357304,
              51.305893434990594
            ],
            [
              37.85105520793783,
              51.305437277940285
            ],
            [
              37.850369939133884,
              51.30509294864433
            ],
            [
              37.85028360224513,
              51.30510113340367
            ],
            [
              37.850203057368674,
              51.305056643602
            ],
            [
              37.850067618611206,
              51.30491296056769
            ],
            [
              37.84903255164227,
              51.304254492748356
            ],
            [
              37.84842640232509,
              51.30384179961749
            ],
            [
              37.8475634543108,
              51.303337158874
            ],
            [
              37.846591875062046,
              51.30273681094411
            ],
            [
              37.8460150714873,
              51.302264061332096
            ],
            [
              37.845376965753275,
              51.30171040911583
            ],
            [
              37.84480141526538,
              51.30128366037107
            ],
            [
              37.843913053773775,
              51.300795557983236
            ],
            [
              37.84299222840522,
              51.300352811470134
            ],
            [
              37.84209044141738,
              51.29989801414024
            ],
            [
              37.8409663148382,
              51.29934429621281
            ],
            [
              37.83980637409127,
              51.29882838772173
            ],
            [
              37.83867161825134,
              51.29832394689279
            ],
            [
              37.83775675624034,
              51.29790955276016
            ],
            [
              37.83669948038096,
              51.29742410321566
            ],
            [
              37.835410786150305,
              51.29683643124119
            ],
            [
              37.83504067254063,
              51.296684312169106
            ],
            [
              37.83484995575131,
              51.296640109448106
            ],
            [
              37.834337090428136,
              51.29642550676854
            ],
            [
              37.834184665713565,
              51.296363315547666
            ],
            [
              37.83413017082282,
              51.29637084460873
            ],
            [
              37.83407040502476,
              51.29634937562534
            ],
            [
              37.83403332870162,
              51.29630210919842
            ],
            [
              37.833625183477864,
              51.29610663428676
            ],
            [
              37.833194200095136,
              51.29591016182161
            ],
            [
              37.83243393842872,
              51.29556940220971
            ],
            [
              37.831797633078025,
              51.29533520314348
            ],
            [
              37.83095374468502,
              51.29497706663534
            ],
            [
              37.8303675931848,
              51.29468115628154
            ],
            [
              37.8297737870036,
              51.29429454502281
            ],
            [
              37.829207655202424,
              51.29388878064998
            ],
            [
              37.82868281370719,
              51.29349551360346
            ],
            [
              37.82802622844716,
              51.292981738598115
            ],
            [
              37.82743520115372,
              51.29253426312985
            ],
            [
              37.82689526187704,
              51.29209660428836
            ],
            [
              37.826436142960944,
              51.291731547688016
            ],
            [
              37.82589156803155,
              51.29127561240796
            ],
            [
              37.82543763327419,
              51.29086760723462
            ],
            [
              37.82497477091209,
              51.29041311343201
            ],
            [
              37.824523387868595,
              51.289970782965696
            ],
            [
              37.824111196678814,
              51.28959735363523
            ],
            [
              37.82400866842053,
              51.28958257175566
            ],
            [
              37.82396262843716,
              51.289537714426984
            ],
            [
              37.82400746573143,
              51.28948604077294
            ],
            [
              37.82346629811991,
              51.28900058818829
            ],
            [
              37.82277012303172,
              51.2883872900843
            ],
            [
              37.82223015264577,
              51.287912363641766
            ],
            [
              37.82196211722598,
              51.287744454528564
            ],
            [
              37.82159660719802,
              51.28767236437639
            ],
            [
              37.82035871773644,
              51.287463087747966
            ],
            [
              37.8198258208663,
              51.28740645038661
            ],
            [
              37.81917919551114,
              51.28751273245422
            ],
            [
              37.818403997753194,
              51.28765244484305
            ],
            [
              37.81824363435675,
              51.28768658847375
            ],
            [
              37.8182269334734,
              51.28774028402799
            ],
            [
              37.81813779450391,
              51.28775376063507
            ],
            [
              37.81800794508439,
              51.28773501696148
            ],
            [
              37.81756765773497,
              51.28779414455494
            ],
            [
              37.8169480958596,
              51.287868894466214
            ],
            [
              37.816166103118235,
              51.28786206861082
            ],
            [
              37.81556563688062,
              51.28782095205216
            ],
            [
              37.815013581324564,
              51.287764507462214
            ],
            [
              37.81425546275588,
              51.28767254947047
            ],
            [
              37.813524883682504,
              51.287588246666274
            ],
            [
              37.81298402110255,
              51.28752842412348
            ],
            [
              37.81226169873963,
              51.2874434597571
            ],
            [
              37.811498563977125,
              51.28735815869078
            ],
            [
              37.81076083648264,
              51.28727215897436
            ],
            [
              37.81007559467787,
              51.28719876301221
            ],
            [
              37.809396745121774,
              51.28711451789388
            ],
            [
              37.8085911264364,
              51.287022104006155
            ],
            [
              37.80795443918194,
              51.28694660538878
            ],
            [
              37.80751154252698,
              51.286894056674925
            ],
            [
              37.80740339780672,
              51.28693447724834
            ],
            [
              37.80734052787702,
              51.28691200242133
            ],
            [
              37.80724503317708,
              51.28685717146291
            ],
            [
              37.80627313907203,
              51.28674113807614
            ],
            [
              37.80541463600352,
              51.28663727127437
            ],
            [
              37.80477084815226,
              51.286558973915135
            ],
            [
              37.80401891572305,
              51.28647151776528
            ],
            [
              37.80322294983398,
              51.286370088677046
            ],
            [
              37.80245419530357,
              51.286281385687744
            ],
            [
              37.80182027172262,
              51.28621018349935
            ],
            [
              37.800850280083495,
              51.28609422611473
            ],
            [
              37.800823634160054,
              51.28613487139373
            ],
            [
              37.80076170437485,
              51.2861133420414
            ],
            [
              37.80064337643273,
              51.286056106365464
            ],
            [
              37.79976156379749,
              51.285957957391474
            ],
            [
              37.7990582085813,
              51.285876945058504
            ],
            [
              37.79853438973177,
              51.28581555401507
            ],
            [
              37.79786559399071,
              51.2857374421051
            ],
            [
              37.79730183085829,
              51.28567832845252
            ],
            [
              37.79660619370816,
              51.28559516238647
            ],
            [
              37.79579268979853,
              51.28549067688721
            ],
            [
              37.79524555301933,
              51.285427852459264
            ],
            [
              37.794605252941324,
              51.28535356697074
            ],
            [
              37.79396918321524,
              51.28527605172974
            ],
            [
              37.793836857412714,
              51.285287592614594
            ],
            [
              37.79375133303304,
              51.285277222860316
            ],
            [
              37.793627317407896,
              51.28524086447223
            ],
            [
              37.79333687350061,
              51.28520202349145
            ],
            [
              37.79274339353,
              51.285142551285645
            ],
            [
              37.79215617429037,
              51.28506389107005
            ],
            [
              37.79170327783018,
              51.285016264103234
            ],
            [
              37.79121940624182,
              51.284960526533524
            ],
            [
              37.79062904436233,
              51.28488031618761
            ],
            [
              37.79004799644218,
              51.28481877970381
            ],
            [
              37.789214107856964,
              51.28471545031499
            ],
            [
              37.78889341186587,
              51.28469179731931
            ],
            [
              37.78879862215396,
              51.28469010283379
            ],
            [
              37.788420422503435,
              51.28469155455434
            ],
            [
              37.788267875823465,
              51.28477378946832
            ],
            [
              37.7880779155725,
              51.28483432167556
            ],
            [
              37.7879719098928,
              51.284833996037804
            ],
            [
              37.78781988866973,
              51.28481057184152
            ],
            [
              37.787665198676535,
              51.284710058253694
            ],
            [
              37.787581754111244,
              51.284636694422886
            ],
            [
              37.787375529913305,
              51.28455256616928
            ],
            [
              37.787038466873355,
              51.28444346566303
            ],
            [
              37.78679474926986,
              51.284413118735756
            ],
            [
              37.78608389120373,
              51.28432924752323
            ],
            [
              37.78506176599876,
              51.284219613309915
            ],
            [
              37.7841758095536,
              51.28411722076825
            ],
            [
              37.783136265153274,
              51.284004301700776
            ],
            [
              37.78218584385601,
              51.28390914818766
            ],
            [
              37.781121659886566,
              51.283786234347474
            ],
            [
              37.78018496314223,
              51.28369126300939
            ],
            [
              37.77964386526452,
              51.28363138154424
            ],
            [
              37.77957300207831,
              51.28364660693501
            ],
            [
              37.779546415145944,
              51.28363650907005
            ],
            [
              37.77919194650235,
              51.283564678695484
            ],
            [
              37.77808348085483,
              51.28345081845703
            ],
            [
              37.77687984841768,
              51.283323241280755
            ],
            [
              37.77605743882589,
              51.28324346296691
            ],
            [
              37.775246970723515,
              51.28315683505156
            ],
            [
              37.774441989619675,
              51.28308049853257
            ],
            [
              37.773463641261,
              51.28298405075793
            ],
            [
              37.772619506382,
              51.28290550078998
            ],
            [
              37.77184978369661,
              51.28283397396959
            ],
            [
              37.77111039373784,
              51.28277337924476
            ],
            [
              37.77108015588925,
              51.2827898779407
            ],
            [
              37.77103662078687,
              51.28278552699115
            ],
            [
              37.77093250350825,
              51.28274662138284
            ],
            [
              37.769895147627864,
              51.282662874429775
            ],
            [
              37.76909702449254,
              51.282611622254535
            ],
            [
              37.76825131060414,
              51.28255882104395
            ],
            [
              37.76742713667775,
              51.28249194950604
            ],
            [
              37.76653570904071,
              51.28243065159586
            ],
            [
              37.765665781599296,
              51.28236638296016
            ],
            [
              37.76459583634778,
              51.28228149452357
            ],
            [
              37.7636408738048,
              51.28221797780077
            ],
            [
              37.7629031646367,
              51.28216844452729
            ],
            [
              37.76212423246366,
              51.28213588048328
            ],
            [
              37.76124126802125,
              51.28210858012599
            ],
            [
              37.76033332312315,
              51.282083905358576
            ],
            [
              37.759411295715296,
              51.28201200331608
            ],
            [
              37.75855316696203,
              51.28195674965767
            ],
            [
              37.757627915716256,
              51.28185352523411
            ],
            [
              37.75669135864024,
              51.281751170758525
            ],
            [
              37.756006732449265,
              51.28167983309348
            ],
            [
              37.75525197045329,
              51.28160945235268
            ],
            [
              37.75459947058155,
              51.28154012348327
            ],
            [
              37.75391265633431,
              51.28146115988184
            ],
            [
              37.75325102920846,
              51.281375168415735
            ],
            [
              37.75184821493556,
              51.28116368502259
            ],
            [
              37.75042048181999,
              51.28094097337575
            ],
            [
              37.74956507098631,
              51.28088880059096
            ],
            [
              37.748618243141976,
              51.28089829104209
            ],
            [
              37.7473548177862,
              51.280950034433346
            ],
            [
              37.746533874525,
              51.280985399773925
            ],
            [
              37.745731548334504,
              51.28098312762879
            ],
            [
              37.744776934445156,
              51.28094353704719
            ],
            [
              37.743347752364684,
              51.28087069909563
            ],
            [
              37.741706272435835,
              51.28076624267234
            ],
            [
              37.74004118674392,
              51.28066517195833
            ],
            [
              37.738784072637316,
              51.28058520862905
            ],
            [
              37.73750321299809,
              51.28045278673724
            ],
            [
              37.73617450227684,
              51.28035137794339
            ],
            [
              37.73592034193524,
              51.28034958316181
            ],
            [
              37.73543530254594,
              51.280310168012704
            ],
            [
              37.73515235458299,
              51.28025224834005
            ],
            [
              37.73486815473751,
              51.28017899399006
            ],
            [
              37.73464165408171,
              51.28007780814218
            ],
            [
              37.73447844750481,
              51.2799611812666
            ],
            [
              37.73408245808349,
              51.27958092061127
            ],
            [
              37.73339942178367,
              51.27899708367002
            ],
            [
              37.73287269746669,
              51.278535811164176
            ],
            [
              37.73258031592775,
              51.27829959981236
            ],
            [
              37.73233526201395,
              51.27818663339747
            ],
            [
              37.7320365921845,
              51.27806062896801
            ],
            [
              37.7316949105149,
              51.27799804352452
            ],
            [
              37.731045201810076,
              51.27793709756352
            ],
            [
              37.730150542845536,
              51.277894869807625
            ],
            [
              37.72902264796488,
              51.27783604695685
            ],
            [
              37.72800522566814,
              51.277772718464774
            ],
            [
              37.727355603691535,
              51.277728431483496
            ],
            [
              37.726653605434876,
              51.277683456824775
            ]
          ],
          "type": "LineString"
        }
      }
    ]
  }